,formatted_address,latitude,longitude,accuracy,google_place_id,type,postcode,input_string,number_of_results,status
0,"509, 6th Cross Rd, 6th Block, Koramangala, Bengaluru, Karnataka 560047, India",12.9369208,77.6249452,ROOFTOP,ChIJTbOugkQUrjsR3q8gdsy4DYo,street_address,560047,"509, 6th Cross Rd, 6th Block, Koramangala, Bengaluru, Karnataka 560095",1,OK
1,"8th Floor, 167 Fleet St, London EC4A 2EA, UK",51.51433859999999,-0.1087471,ROOFTOP,ChIJNc5xKLMEdkgRYzvMyKABtCw,subpremise,EC4A 2EA,"8th Floor, 167 Fleet Street, LONDON, EC4A 2EA",1,OK
2,"Heinrich-Heine-Allee 1, 40213 Düsseldorf, Germany",51.2295051,6.7765926,ROOFTOP,ChIJdV_jsxjKuEcRK61Nk681OuQ,premise,40213,"Mara Labs UG/Orrick, Herrington LL, Heinrich-Heine-Allee 1, 40213 Dusseldorf",2,OK
3,"Saki Vihar Rd, Opposite Mtnl Off, Tunga Village, Chandivali, Powai, Mumbai, Maharashtra 400072, India",19.1185767,72.8903661,GEOMETRIC_CENTER,ChIJq8MRDw_I5zsROvyNCcj4BAk,"establishment,general_contractor,point_of_interest",400072,"Lodha Supremus Opposite Mtnl Off Jvlr, Saki Vihar Road Powai, Saki Vihar Rd, Mumbai, Maharashtra 400072",2,OK
4,"87-148, 1st Block Koramangala, Koramangala, Bengaluru, Karnataka 560034, India",12.925613,77.6367714,ROOFTOP,ChIJuRh_IWIUrjsRssGNEpYJcZw,"establishment,point_of_interest",560034,"87-148, 4th Floor, Mayur Greens, 1st Block Koramangala, Bengaluru, Karnataka 560034",1,OK
5,"Điện Biên Phủ, Dien Bien, Vietnam",21.4063898,103.0321549,APPROXIMATE,ChIJXTYQ7FwILTERZL584tv9pzc,"locality,political",,"CirCO , Building : 222 Dien Bien Phu , ward 7 , District 3 Office No : S07.02",1,OK
6,,,,,,,,"7 TEMASEK BOULEVARD, #12-07 SUNTEC TOWER ONE SINGAPORE (038987)",0,REQUEST_DENIED
7,"691 S Milpitas Blvd, Milpitas, CA 95035, USA",37.4210358,-121.8932699,ROOFTOP,ChIJ2xWjIM_Oj4ARHayWNPvG-jo,street_address,95035,"Suite 217, 691 S Milpitas, Milpitas CA 95035",1,OK
8,"Menara Prima, Jl. DR. Ide Anak Agung Gde Agung, RT.5/RW.2, Kuningan, Kuningan Tim., Kecamatan Setiabudi, Kota Jakarta Selatan, Daerah Khusus Ibukota Jakarta 12950, Indonesia",-6.230352,106.8262725,ROOFTOP,ChIJQwQiUeTzaS4R0DoLY6tGsMw,premise,12950,"Menara Prima 5th Floor, Jl. DR. Ide Anak Agung Gde Agung, Kuningan Tim., Kota Jakarta Selatan, Daerah Khusus Ibukota Jakarta 12940",1,OK
9,"5/27 Dover Dr, Burleigh Heads QLD 4220, Australia",-28.1037224,153.4264346,ROOFTOP,ChIJgyxFJRsDkWsRQ4lp3W_Amgw,subpremise,4220,"5/27 Dover Dr, Burleigh Heads QLD 4220",1,OK
10,,,,,,,,"Intelligent Retail Pvt Ltd, Maithreyi # 1090/L, 3rd floor 18th cross, Sector 3, HSR Layout, Bengaluru, Karnataka-560102",0,REQUEST_DENIED
11,"175 Pitt St, Sydney NSW 2000, Australia",-33.8685661,151.2079699,ROOFTOP,ChIJqQ2_hj-uEmsRjCK40G03r_A,street_address,2000,"175 Pitt Street, Sydney, New South Wales 2000, Australia",1,OK
12,"1-chōme-8-7 Honchō, Asaka, Saitama 351-0011, Japan",35.7978025,139.5933937,ROOFTOP,ChIJzaIrzHXpGGARoHq-eRBQ3dw,street_address,351-0011,"1-8-7 Honcho, Asaka, Saitama Prefecture 351-0011, Japan",1,OK
13,"7, 6th Cross Rd, Dollars Colony, Stage 2, Bilekahalli, Bengaluru, Karnataka 560076, India",12.906108,77.603341,ROOFTOP,ChIJ1882GBwVrjsRFnupa6-C-1I,street_address,560076,"Number 7, 6th Cross Road, Dollars Colony Stage 2, Bilekahalli ,Bengaluru, Karnataka 560076, India",1,OK
14,"Nanjing, Jiangsu, China",32.0583799,118.79647,APPROXIMATE,ChIJg82NZpuMtTURBhvfeQu2-48,"locality,political",,"Floor 3-5, Building 4, Tianchao Science Park, No. 107-1, Software Avenue, Yuhua
Nanjing, Jiangsu 200335, China",2,OK
15,"914 Railroad Ave, Tallahassee, FL 32310, USA",30.4340261,-84.2905413,ROOFTOP,ChIJOQYUz2z17IgRh4B6IJeXrDQ,premise,32310,"914 Railroad Ave, Tallahassee, FL32310, USA",1,OK
16,"Ratha Tek Meadows Rd, Elcot Sez, Sholinganallur, Chennai, Tamil Nadu 600119, India",12.906394,80.2271801,GEOMETRIC_CENTER,ChIJx5XZZXxcUjoRheS01UMWEZM,route,600119,"Tower C,  Ground floor, Ratthatek Meadows, Sholinganallur, Chennai - 600119 ",1,OK
17,"1 Queens Rd, Melbourne VIC 3004, Australia",-37.8357683,144.9738758,ROOFTOP,ChIJCfqt9DNp1moR7S27cyl5C_Q,"establishment,parking,point_of_interest",3004,"St Kilda Rd Towers, 1 Queens Road, Melbourne VIC 3004, Australia",1,OK
18,"Chang Tai Guang Chang, 六庵 Pu Dong Xin Qu, Shang Hai Shi, China, 201203",31.2066742,121.6007642,ROOFTOP,ChIJ31Ie7bl3sjURjmJbcnAyEDY,premise,201203,"Room 502, Block A, Changtai Plaza, Lane 2889, Jinke Road, Pudong New District, Shanghai, China",1,OK
19,"Bunkyo City, Tokyo, Japan",35.7078686,139.7524369,APPROXIMATE,ChIJH9PsyrONGGARmraJ6qIfziY,"locality,political",,"Bunkyo-ku, Tokyo",1,OK
20,"6-chōme-12-16 Nishishinjuku, Shinjuku City, Tokyo 160-0023, Japan",35.6934023,139.6887103,ROOFTOP,ChIJAQAAANWMGGARaauEp6Me1xs,"establishment,point_of_interest",160-0023,"1105 Stoke Shinjuku, 6-12-7 Nishi-Shinjuku, Shinjuku-ku, Tokyo, 160-0023, Japan",1,OK
21,"X978+85P, Beitaipingzhuang, Haidian District, Beijing, China, 100088",39.963344,116.365455,GEOMETRIC_CENTER,ChIJv0dsd5tT8DUR4F23CdxCUoM,"establishment,point_of_interest,school",100088,"9th Floor, Shouxiang Technology Building, Haidian District, Beijing",1,OK
22,"China, Nei Meng Gu Zi Zhi Qu, E Er Duo Si Shi, Dong Sheng Qu, 罕台七路 邮政编码: 017008",39.815225,109.842404,GEOMETRIC_CENTER,ChIJ55CNgZAWDjYRL4VLrffCDDQ,"establishment,lodging,point_of_interest",017008,"11th Floor, Xinghe Cococity Business Center, Dongsheng District, Ordos City, Inner Mongolia",1,OK
23,,,,,,,,"15th Floor, Building B, Building 1, Zhongke R&D City, High-tech Zone, Qingdao",0,ZERO_RESULTS
24,"Gang Cheng Jie, Nan Shan Qu, Shen Zhen Shi, Guang Dong Sheng, China, 518066",22.50172,113.88878,GEOMETRIC_CENTER,ChIJc-Z10BvvAzQRB4YUWm2Npu4,route,518066,"7th Floor, Qianhai Yidu Building, No. 99, Gangcheng Street, Nanshan District, Shenzhen",2,OK
25,"Yuhang District, Hangzhou, Zhejiang, China",30.4187503,120.2985013,APPROXIMATE,ChIJw1kJU5hESzQRo_-n5FwZx2k,"political,sublocality,sublocality_level_1",,"19th and 20th Floor, Dexin Data Industry Building, Yuhang District, Hangzhou",1,OK
26,"Level 2/11 York St, Sydney NSW 2000, Australia",-33.8652858,151.2052783,ROOFTOP,ChIJ2w9o2ECuEmsRoXG8S_wKbDE,subpremise,2000,"Level 2, 11 York Street, Sydney, New South Wales 2000, Australia",1,OK
27,"Neelkanth Corporate Park, Nathani Rd, near Sahney Indian Private Limited, Kirol Village, Vidyavihar West, Vidyavihar, Mumbai, Maharashtra 400086, India",19.0820398,72.8957612,ROOFTOP,ChIJL5i1eYHI5zsRoiU5Qf4Aj3Y,premise,400086,"715, Neelkanth Corporate Park, Near Vidyavihar Railway Station, Vidyavihar West, Mumbai, Maharashtra 400086, India",2,OK
28,"4th floor, Number, 2012, 100 Feet Rd, near Vision Express India, HAL 2nd Stage, Kodihalli, Bengaluru, Karnataka 560008, India",12.9656227,77.6417731,ROOFTOP,En00dGggZmxvb3IsIE51bWJlciwgMjAxMiwgMTAwIEZlZXQgUmQsIG5lYXIgVmlzaW9uIEV4cHJlc3MgSW5kaWEsIEhBTCAybmQgU3RhZ2UsIEtvZGloYWxsaSwgQmVuZ2FsdXJ1LCBLYXJuYXRha2EgNTYwMDA4LCBJbmRpYSItGisKFgoUChIJJQqkzhwUrjsRIa0XwMi0eS0SETR0aCBmbG9vciwgTnVtYmVy,subpremise,560008,"Shreyas Plaza, 4th floor, Number 2012, 100 feet road, HAL 2nd Stage, Indiranagar, Bengaluru, Karnataka 560038, India",1,OK
29,"Embassy Tech Village, Phase II Aster Building 2A, East Tower, Outer Ring Rd, Devarabisanahalli, Kadabeesanahalli, Bengaluru, Karnataka 560103, India",12.9310164,77.6911769,GEOMETRIC_CENTER,ChIJXUO4soYWrjsRENJ7tIjR6Zc,"establishment,point_of_interest",560103,"Eka Software Solutions, Embassy Tech Village SEZ, Phase II, Aster Building 2A, East Tower, Outer Ring Road, Devarabeesanahalli, Bengaluru, 560103, India",2,OK
30,"The Helmsley Building, New York, NY 10017, USA",40.7544036,-73.97616839999999,ROOFTOP,ChIJfz3I9v1YwokR7bhLY0j5oaE,premise,10017,"Eka Software Solutions Inc, 230 Park Ave, Floors 3 & 4, New York -10169, USA",1,OK
31,"297-299 Kingston Rd, Leatherhead KT22 7PL, UK",51.3102969,-0.3340446,ROOFTOP,ChIJrzvDTlHgdUgR--9v7t0RTKQ,"establishment,point_of_interest",KT22 7PL,"Eka Software Solutions Ltd,Dorset House, Regent Park, Kingston Road, Leatherhead, Ashtead, KT22 7PL, UK",2,OK
32,"421 7 Ave SW #1700, Calgary, AB T2P 4K9, Canada",51.0466152,-114.0709273,ROOFTOP,Ei80MjEgNyBBdmUgU1cgIzE3MDAsIENhbGdhcnksIEFCIFQyUCA0SzksIENhbmFkYSIgGh4KFgoUChIJ_7x9M-NvcVMRG1-TLv4hba8SBDE3MDA,subpremise,T2P 4K9,"Eka Canada Inc, C/o, McMillan LLP, 1700, 421-7th Avenue SW, Calgary, AB T2P 4K9",3,OK
33,"Bd Georges-Favon 8, 1204 Genève, Switzerland",46.20327469999999,6.1397173,ROOFTOP,ChIJsaNtEtZkjEcRl9gJ1SeZ2q8,premise,1204,"Eka Software Solutions Sàrl, Georges-Favon 8, 1204 Geneva, Switzerland",1,OK
34,"5/185 Victoria Square, Adelaide SA 5000, Australia",-34.9274891,138.5988272,ROOFTOP,ChIJBbOcddjOsGoRPNKrmSF8y3I,subpremise,5000,"Eka CTRM Solutions Pty Ltd, Level 5/185, Victoria Square, Adelaide – 5000, SA, Australia",1,OK
35,"33 Edith Cavell St, Port Louis 11324, Mauritius",-20.1656599,57.5026194,ROOFTOP,ChIJ_WdJC1RQfCERzZStLuHVp1E,premise,11324,"Sybex Mauritius Limited, C/O CIM Global Business, Les Cascades Building, 33, Edith Cavell Street , Port Louis, Mauritius",1,OK
36,"3-chōme-16-9 Yakumo, Meguro City, Tokyo 152-0023, Japan",35.6173523,139.6666339,ROOFTOP,ChIJpe1Ja-b0GGAR5hTH4Ct4NRc,premise,152-0023,"3-16-9 Meguro, Meguro-ku, Tokyo, 153-0063, Japan",2,OK
37,"2-chōme-3-10 Kawaramachi, Chuo Ward, Osaka, 541-0048, Japan",34.6858172,135.5052631,ROOFTOP,ChIJE-TN4B_nAGARId_mZ08X8jo,street_address,541-0048,"2F Kawaramachichuo Bld., 2-3-10 Kawaramachi, Chuo-Ku, Osaka-Shi, Osaka,   541-0048",1,OK
38,"1-chōme-25-1 Aoi, Higashi Ward, Nagoya, Aichi 461-0004, Japan",35.1705692,136.9217446,ROOFTOP,ChIJL5loo8JwA2ARtSUddRmqFA4,street_address,461-0004,"302 Nissin Bld., 1-25-1 Aoi, Higashi-Ku, Nagoya-Shi, Aichi, 461-0004",1,OK
39,"4-chōme-2-10 Hakataekiminami, Hakata Ward, Fukuoka, 812-0016, Japan",33.5809778,130.4300643,ROOFTOP,ChIJafnsobSRQTUR6FfZBfsDEEE,premise,812-0016,"5F Minamikindai Bld., 4-2-10 Hakataeki Minami, Hakata-Ku, Fukuoka-shi, Fukuoka, 812-0016",2,OK
40,"Japan, 〒170-6045 Tokyo, Toshima City, Higashiikebukuro, 3-chōme−1−１ サンシャイン60 45階",35.729451,139.718194,ROOFTOP,ChIJwQn22RWLGGARYkeME8tHN1w,"establishment,point_of_interest,real_estate_agency",170-6045,"42F Sunshine60, 3-1-1 Higashi Ikebukuro, Toshima-Ku, Tokyo,170-6042",1,OK
41,"Tong Ji Lu, Bao Shan Qu, China, 200940",31.37356,121.49271,GEOMETRIC_CENTER,EiZUb25nIEppIEx1LCBCYW8gU2hhbiBRdSwgQ2hpbmEsIDIwMDk0MCIuKiwKFAoSCVkpRDAjDbI1EScI6_FWwwxdEhQKEgnNAX-D2wyyNREQdRbpTtlNDg,route,200940,"Room 1095, No. 48, Lane 60, Tongji Road, Baoshan District, Shanghai, Shanghai, Shanghai 200940, CN",1,OK
42,"Pritam Nagari, Shantai Complex, Rahatani, Adinath Colony, Rahatani, Pimpri-Chinchwad, Maharashtra 411017, India",18.609716,73.7844259,GEOMETRIC_CENTER,ChIJcUoa4wW5wjsRT5A3kQDZ-Xs,"establishment,point_of_interest",411017,"B102 Shreenanda Classic Rahatani, Pune, Maharashtra 411017
India",1,OK
43,"Fu Yu Lu, Fu Qing Shi, Fu Zhou Shi, Fu Jian Sheng, China, 350301",25.71223,119.33017,GEOMETRIC_CENTER,ChIJyQ29HtczQDQRj_hLA94UBAo,route,350301,"Fuyu Rd., Honglu Sub-district, Fuqing City Fuzhou, Fujian, 350300 China",1,OK
44,"34 Village St, Docklands VIC 3008, Australia",-37.8193986,144.9497181,ROOFTOP,ChIJmYAkhFpd1moRKashrmVIaK0,street_address,3008,"34 Village Street, Docklands, Victoria 3008, Australia",1,OK
45,"Long Zhou Lu, Hang Zhou Shi, Zhe Jiang Sheng, China",30.2783616,119.9846815,GEOMETRIC_CENTER,EjNMb25nIFpob3UgTHUsIEhhbmcgWmhvdSBTaGksIFpoZSBKaWFuZyBTaGVuZywgQ2hpbmEiLiosChQKEgktdT5GATCzNRFX2ci4T81MNxIUChIJmaqaQym2SzQROuhNgoPRv6c,route,,"9th Floor, Economic Park, Alumni Enterprise Headquarters, Building 1, Juhua, Science and Technology Park, Number 6 Longzhou Road, Hangzhou, Zhejiang, China",1,OK
46,"2-chōme-25-5 Kamiōsaki, Shinagawa City, Tokyo 141-0021, Japan",35.6345163,139.7147472,ROOFTOP,ChIJdRkvGhmLGGARoVVDQnFSXqA,street_address,141-0021,"Kume Building 6th Floor, 2-25-5 Kamiosaki, Shinagawa-ku, Tokyo, 141-0021, Japan",2,OK
47,"498 Guo Shou Jing Lu, Pu Dong Xin Qu, Shang Hai Shi, China, 201203",31.210506,121.598035,ROOFTOP,ChIJ7UTW6LB3sjUREgeZtfMPWx0,"establishment,point_of_interest",201203,"Shanghai Surui Information Technology Co., Ltd.: Room 505, Building 12, No. 498, Guoshoujing Road, Pudong New Area, Pudong Software Park, Shanghai",1,OK
48,"Wuxing District, Huzhou, Zhejiang, China",30.8581599,120.18562,APPROXIMATE,ChIJw8tLXlGqtDUR6pZBXcVu9LA,"political,sublocality,sublocality_level_1",,"Huzhou Columbus Logistics Technology Co., Ltd.: 2F, Building 2, No. 18, Industrial Road, Wuxing District, Huzhou City",2,OK
49,"Ba Ling Hu Lu, Ming Guang Shi, Chu Zhou Shi, An Hui Sheng, China",32.79181,118.06326,GEOMETRIC_CENTER,ChIJb4Z2gACbyTUR_M0TetkZPpo,route,,"Anhui Columbus Intelligent Technology Co., Ltd.: Balinghu Road, Mingguang Economic Development Zone (Zhancheng New District)",1,OK
50,"Yizhuangzhen, Daxing District, Beijing, China, 102676",39.800248,116.481858,APPROXIMATE,ChIJa7XpCJKz8TURQ64e9t521bM,"political,sublocality,sublocality_level_2",102676,"Floor T6-3, Han's Plaza, Yizhuang Economic and Technological Development Zone, Beijing",1,OK
51,"Li An Lu, Min Hang Qu, Shang Hai Shi, China",31.12554,121.3609,GEOMETRIC_CENTER,EitMaSBBbiBMdSwgTWluIEhhbmcgUXUsIFNoYW5nIEhhaSBTaGksIENoaW5hIi4qLAoUChIJgY4WXtBjsjUR_oxUVLqoz4ASFAoSCdWHS-I7Y7I1ESiIvhYrEF7e,route,,"Room 01, 6th Floor, Dahongqiao International, Li'an Road, Minhang District, Shanghai",1,OK
52,"Tai Hu Dong Lu, Xin Bei Qu, Chang Zhou Shi, Jiang Su Sheng, China",31.81312,119.99078,GEOMETRIC_CENTER,EkFUYWkgSHUgRG9uZyBMdSwgWGluIEJlaSBRdSwgQ2hhbmcgWmhvdSBTaGksIEppYW5nIFN1IFNoZW5nLCBDaGluYSIuKiwKFAoSCZd0mRedDbQ1EVAaaskf-s80EhQKEgnZkjnM2hC0NREIMe8mHj6wWQ,route,,"Room 903-904, Creative Industry Park, 9-3, East Taihu Road, Xinbei District, Changzhou City, Jiangsu Province",2,OK
53,"Xing Hua Jie, Wu Zhong Qu, Su Zhou Shi, Jiang Su Sheng, China, 215121",31.319614,120.770586,GEOMETRIC_CENTER,ChIJP3f5c82uszURLtYeO9yN2kw,"establishment,point_of_interest",215121,"Suzhou International Science and Technology Park, No. 328 Xinghu Street, Suzhou Industrial Park, Jiangsu Province",1,OK
54,"Bao Li Shi Jie Mao Yi Zhong Xin, 龙口 Hai Zhu Qu, Guang Zhou Shi, Guang Dong Sheng, China, 510320",23.0964211,113.3675161,ROOFTOP,ChIJEddjS-7_AjQRiyC1aYJ2ltg,premise,510320,"Room 4110, Block E, Poly World Trade Center, No. 1022, Xingang East Road, Haizhu District, Guangzhou City, Guangdong Province",1,OK
55,"Baohe District, Hefei, Anhui, China",31.7550699,117.3827899,APPROXIMATE,ChIJqemvugZnyzURtA0n0yelkgo,"political,sublocality,sublocality_level_1",,"Zhongguancun Collaborative Innovation Wisdom Park, Baohe Economic and Technological Development Zone, Hefei City, Anhui Province",1,OK
56,"Yong Yi Da Sha, 大场浦 Bao Shan Qu, Shang Hai Shi, China, 200443",31.3387977,121.433565,ROOFTOP,ChIJZ--VL5ttsjURuA4Ykclv3FM,premise,200443,"Block E, 5th Floor, Yongyi Building, 100 Hulan West Road, Baoshan District, Shanghai, 201900, China",1,OK
57,"161 Lin He Xi Lu, Tian He Qu, Guang Zhou Shi, Guang Dong Sheng, China, 510507",23.1497287,113.3227193,ROOFTOP,ChIJAYRbKO7-AjQRY-Dp33dtYQo,"establishment,point_of_interest",510507,"Room 1701, Block A, Zhongtai International Plaza, No. 161, Linhe West Road, Tianhe District, Guangzhou, China",1,OK
58,"Xiang Yuan Lu, 大关 Gong Shu Qu, Hang Zhou Shi, Zhe Jiang Sheng, China, 310014",30.3012,120.1592,GEOMETRIC_CENTER,ChIJz6guBPidTDQRGV69cflzUkQ,route,310014,"5th Floor, Building 4, Phase 3, China Wisdom Information Industrial Park, 88 Xiangyuan Road, Hangzhou, Gongshu District, China",1,OK
59,"226 Ortigas Ave, San Juan, 1502 Metro Manila, Philippines",14.602843,121.044496,ROOFTOP,ChIJNdHaiNe3lzMRx_14h5Nf-T8,street_address,1502,"Philippines, 226 Ortigas Avenue, San Juan City, Metro Manila, Philippines",1,OK
60,"Xin Zhuan Gong Lu, Song Jiang Qu, Shang Hai Shi, China, 201615",31.09287699999999,121.31904,GEOMETRIC_CENTER,ChIJETkWRddhsjUR8unZiDoQkMM,"establishment,point_of_interest",201615,"Room 603, Building 32, No. 258, Xinzhuan Road, Songjiang District, Shanghai
(in Songjiang Park, Caohejing Development Zone), 201612",1,OK
61,"Parer Place, 3 Gona Parade, Kelvin Grove QLD 4059, Australia",-27.4549266,153.0130495,ROOFTOP,ChIJve2ybVZXkWsRaR8Tk6VzBNs,"establishment,park,point_of_interest",4059,"34 Parer Place (via Musk Avenue), Z1 The Works, Brisbane, QLD 4059, AU",1,OK
62,"1/339 Whitehorse Rd, Balwyn VIC 3103, Australia",-37.812656,145.080645,ROOFTOP,ChIJESUQ4jxB1moRApNpI4m5Ah4,subpremise,3103,"Level 1 339 Whitehorse Road, Balwyn, Melbourne, Victoria 3103, Australia",1,OK
63,"125 York St, Sydney NSW 2000, Australia",-33.87177,151.2061689,ROOFTOP,ChIJu5g46z6uEmsRfIzr-dFn0DY,premise,2000,"125 York Street, Sydney, New South Wales 2000, Australia",1,OK
64,"72 O'Riordan St, Alexandria NSW 2015, Australia",-33.916385,151.1950399,ROOFTOP,ChIJvSAX17GxEmsR7YUPl9qRiLU,street_address,2015,"72 O'Riordan St, Alexandria, New South Wales 2015, AU",1,OK
65,"Sector 2, Noida, Uttar Pradesh 201301, India",28.5846875,77.31592959999999,APPROXIMATE,ChIJpa-wzFjkDDkRKR6DHMI9am8,"political,sublocality,sublocality_level_1",201301,"Sector 2, Noida, 201301, India",1,OK
66,"Gobindpuri Rd, Yamuna Nagar, Haryana 135001, India",30.1392383,77.290964,GEOMETRIC_CENTER,EjJHb2JpbmRwdXJpIFJkLCBZYW11bmEgTmFnYXIsIEhhcnlhbmEgMTM1MDAxLCBJbmRpYSIuKiwKFAoSCbVNEJLU-w45EcMpQn0o5YMAEhQKEgkl6hmLm_kOORECGTkfK27HDw,route,135001,"Number 171, 2nd floor, Brij Puri Colony, Opposite D.A.V school, Govindpuri Road, Yamunanagar, Haryana 135001, India",1,OK
67,"F2 166, Gopalpura Bypass Rd, Mangal Vihar, Keshav Vihar, Arjun Nagar, Jaipur, Rajasthan 302018, India",26.8737158,75.77620499999999,ROOFTOP,ChIJa74HX0y0bTkRN53auFCEUnE,"establishment,point_of_interest",302018,"528, 5th floor, Jaipur Electronic Market, Near Riddhi Siddhi Gopalpura Bypass, Jaipur, Rajasthan – 302018 India",2,OK
68,"158 W 27th St #6, New York, NY 10001, USA",40.74619999999999,-73.9934323,ROOFTOP,EikxNTggVyAyN3RoIFN0ICM2LCBOZXcgWW9yaywgTlkgMTAwMDEsIFVTQSIdGhsKFgoUChIJUy53XaVZwokRhy4vsT56FC8SATY,subpremise,10001,"158 West 27th, Floor 6, New York, NY 10001, United States",1,OK
69,"8 The Green, Dover, DE 19901, USA",39.1566126,-75.5241898,ROOFTOP,ChIJVbCjZ6pkx4kR0Vg4X3wwfY4,premise,19901,"8 The Green, Dover, Delaware 19901, US",1,OK
70,Al Messaned - Al Mutsannid Suburb - Sharjah - United Arab Emirates,25.2784605,55.6782975,GEOMETRIC_CENTER,ChIJdRyfIpqS9T4ROoG7tg7jirI,"establishment,local_government_office,point_of_interest",,"Sharjah Media City Free Zone , Sharjah, Sharjah 99999, AE",1,OK
71,"Akshayanagar, Bengaluru, Karnataka, India",12.8677991,77.6166843,APPROXIMATE,ChIJ6bvUfi5rrjsR1bHxnKWR7QA,"political,sublocality,sublocality_level_1",,"Akshayanagar , akshayanagar , Bengaluru , Karnataka 560076, IN",1,OK
72,"335, Phase II, Udyog Vihar, Sector 20, Gurugram, Haryana 122008, India",28.5058157,77.0861595,ROOFTOP,ChIJ0QfXlkQZDTkRN9RYEVveWMA,street_address,122008,"335, Phase II, Udyog Vihar, Gurugram, Haryana-122016",1,OK
73,"Iscon Cross Roads, Sarkhej - Gandhinagar Hwy, next to Wide Angle Cinema, Ramdev Nagar, Ahmedabad, Gujarat 380015, India",23.023975,72.507111,GEOMETRIC_CENTER,ChIJ_SQ6ZzqbXjkRNyHDMo8xKIs,"establishment,lodging,point_of_interest",380015,"B-308, Mondeal Heights, Nr. Hotel Novotel, S. G. Highway, Ahmedabad – 380015, Gujarat, INDIA.",3,OK
74,"10, Tung Lee Commercial Building, 91-97 Jervois St, Sheung Wan, Hong Kong",22.28557,114.150699,ROOFTOP,EkkxMCwgVHVuZyBMZWUgQ29tbWVyY2lhbCBCdWlsZGluZywgOTEtOTcgSmVydm9pcyBTdCwgU2hldW5nIFdhbiwgSG9uZyBLb25nIh4aHAoWChQKEgmRYDw9fAAENBHZHfIop-r56RICMTA,subpremise,,"Office A, 10/F, 91-97 Jervois Street, Sheung Wan, Hong Kong",1,OK
75,"6400 Flying Cloud Dr., Eden Prairie, MN 55344, USA",44.88779,-93.40091179999999,ROOFTOP,ChIJJxiflOwh9ocR9ihjqIdlG7k,premise,55344,"6400 Flying Cloud Dr., Eden Prairie, MN 55344, United States",1,OK
76,"1/1501 Malvern Rd, Glen Iris VIC 3146, Australia",-37.8533026,145.044549,ROOFTOP,ChIJq6r67QNC1moRsBJZugYCIzA,subpremise,3146,"1/1501 Malvern Rd, Glen Iris VIC 3146, Australia",1,OK
77,"2/129 B26, Unley SA 5061, Australia",-34.941412,138.6044612,ROOFTOP,ChIJG_ADuubOsGoRwOkY3OT4sMg,subpremise,5061,"2/129 B26, Unley SA 5061, Australia",1,OK
78,"Unit 310, Building 16W, 16 Science and Technology W Ave, Science Park, Hong Kong",22.4274797,114.2085841,RANGE_INTERPOLATED,ElBVbml0IDMxMCwgQnVpbGRpbmcgMTZXLCAxNiBTY2llbmNlIGFuZCBUZWNobm9sb2d5IFcgQXZlLCBTY2llbmNlIFBhcmssIEhvbmcgS29uZyJMGkoKMBIuChQKEgkXTkLPkAgENBFht290I5VKQBAQKhQKEglhepNBlwgENBEGqn0MK9F3hRIWVW5pdCAzMTAsIEJ1aWxkaW5nIDE2Vw,subpremise,,"Unit 310, Building 16W, No. 16 Science Park West Avenue, HKSTP, Shatin, NT, Hong Kong",1,OK
79,"Japan, 〒105-0003 Tokyo, Minato City, Nishishinbashi, 1-chōme−1−１ 日比谷フォートタワ",35.6701356,139.7527426,ROOFTOP,ChIJAdhQ_OyLGGAR6lA-7D83LQA,"establishment,point_of_interest",105-0003,"Level 14 Hibiya Central Building, 1-2-9 Nishi Shinbashi, Minato-Ku, Tokyo 105-0003 JP  ",1,OK
80,,,,,,,,"115 W California Boulevard #1058 Pasadena, CA 91105",0,REQUEST_DENIED
81,"7133 W 95th St #205, Overland Park, KS 66212, USA",38.9554925,-94.66945299999999,ROOFTOP,EjE3MTMzIFcgOTV0aCBTdCAjMjA1LCBPdmVybGFuZCBQYXJrLCBLUyA2NjIxMiwgVVNBIh8aHQoWChQKEgkpfz5qvuvAhxFYCLvag6zZ_RIDMjA1,subpremise,66212,"7133 West 95th Street, Suite 205, Overland Park, KS 66212, United States",1,OK
82,"Chhatrapati Shivaji Maharaj Terminus, Chhatrapati Shivaji Terminus Area, Fort, Mumbai, Maharashtra 400001, India",18.9398446,72.8354475,GEOMETRIC_CENTER,ChIJ3zuquCfO5zsRG40hAwdLQyE,"establishment,point_of_interest,train_station,transit_station",400001,"104, Prospect Chambers, Dr D.N Nagar Road, Fort, CST, Mumbai, Maharashtra 400001, IN",2,OK
83,"Purusharth Plaza, Amin Marg, Gujarat Housing Board, Kotecha Nagar, Rajkot, Gujarat 360001, India",22.2904536,70.7849172,ROOFTOP,ChIJMTCHJiPKWTkRYt1nk-VqL6E,premise,360001,"3rd Floor, Purusharth Plaza,, Near Peoples Bank, Amin Marg, Rajkot, Gujarat 360002, IN",1,OK
84,"2210 Don Chino Roces Avenue, Legazpi Village, Makati, Kalakhang Maynila, Philippines",14.5715258,121.0154724,ROOFTOP,ChIJSzmldxPJlzMRbit8NmUo6U8,"establishment,point_of_interest",,"Unit 3410 Cityland Pasong Tamo Tower 2, 2210 Don Chino Roces Avenue, Makati City",2,OK
85,"Francesca Dawn, No. 24 Orchid St., Lungsod ng Cebu, Lalawigan ng Cebu, Philippines",10.3140609,123.8887997,ROOFTOP,ChIJD7crTUqZqTMROWfOAvKATj8,premise,,"Francesca Dawn Bldg., No. 24 Orchid Road, Capitol Site, Cebu City Philippines,",1,OK
86,"Baani square, Pocket C, South City II, Sector 50, Gurugram, Haryana 122018, India",28.4257225,77.0577849,GEOMETRIC_CENTER,ChIJ37BntdYjDTkR-IWrUC-y4tk,"clothing_store,establishment,point_of_interest,real_estate_agency,shopping_mall,store",122018,"S-37, Second Floor, Baani Square, Sector-50, Gurgaon, Haryana 122018",2,OK
87,"Lang Shan Lu, Nan Shan Qu, Shen Zhen Shi, Guang Dong Sheng, China",22.55686,113.94605,GEOMETRIC_CENTER,ChIJodP9dfrtAzQRu-uNt7nvjL0,route,,"4th Floor, Block A, Tongfang Information Port, Langshan Road, Nanshan District, Shenzhen City, Guangdong Province, Shenzhen Sailing Technology Co., Ltd.",1,OK
88,"21 Benoi Sector, Singapore 629853",1.3192148,103.6882628,ROOFTOP,ChIJZxfRLoEF2jERxpnDQ1fROM8,street_address,629853,"Benoi Sector, No.21, Singapore 629853",1,OK
89,"35, B-3/3, Pocket B, Okhla Phase II, Okhla Industrial Estate, New Delhi, Delhi 110020, India",28.5361056,77.27492989999999,ROOFTOP,ElwzNSwgQi0zLzMsIFBvY2tldCBCLCBPa2hsYSBQaGFzZSBJSSwgT2tobGEgSW5kdXN0cmlhbCBFc3RhdGUsIE5ldyBEZWxoaSwgRGVsaGkgMTEwMDIwLCBJbmRpYSIeGhwKFgoUChIJuWqRHVjhDDkRvqlQE5Ez4xYSAjM1,subpremise,110020,"F-35/3 Pocket B, Okhla Phase II, Okhla Industrial Estate New Delhi, Delhi, 110020",1,OK
90,"MVPC+8WC, Indrapuri Colony, Davv Takshila Parisar, Indore, Madhya Pradesh 452020, India",22.685824,75.87226629999999,GEOMETRIC_CENTER,ChIJ3Uc2ZOn8YjkRnUKbDvnO_8E,"establishment,point_of_interest",452020,"CRYSTAL IT PARK, INDORE, MADHYA PRADESH, 452020",1,OK
91,"3 Germay Dr 4 4737, Wilmington, DE 19804, USA",39.7317773,-75.5785216,ROOFTOP,Ei0zIEdlcm1heSBEciA0IDQ3MzcsIFdpbG1pbmd0b24sIERFIDE5ODA0LCBVU0EiIhogChYKFAoSCYX-xeqA_caJEdfEQ9NQ6pDNEgY0IDQ3Mzc,subpremise,19804,"3 Germay Dr., Ste 4 – 4737, Wilmington DE 19804",1,OK
92,,,,,,,,"“VS&B Niketan”, Y–8‚ 9th Street‚ Anna Nagar, Chennai – 600 040‚ India.",0,ZERO_RESULTS
93,"E Lake Mary Blvd, Sanford, FL, USA",28.7604424,-81.2504601,GEOMETRIC_CENTER,EiJFIExha2UgTWFyeSBCbHZkLCBTYW5mb3JkLCBGTCwgVVNBIi4qLAoUChIJ594976gU54gRmUkshZl3d3MSFAoSCfeII-wNE-eIEUxVgJZOfjHD,route,,"E Lake Mary Blvd, Sanford, Florida 32773, US",1,OK
94,"Near Govind Garden, Pimple Saudagar, Pimpri-Chinchwad, Maharashtra 411027, India",18.594491,73.802335,ROOFTOP,ChIJJynUfue4wjsRfhLltFs8xd8,"establishment,premise",411027,"La Vida Loka, Pimple Saudagar, Pune 411027, INDIA",1,OK
95,"Tenancy No. 2/30 Agar Dr, Truganina VIC 3029, Australia",-37.7992525,144.7502385,RANGE_INTERPOLATED,EjdUZW5hbmN5IE5vLiAyLzMwIEFnYXIgRHIsIFRydWdhbmluYSBWSUMgMzAyOSwgQXVzdHJhbGlhIkMaQQowEi4KFAoSCZ3fMxFXitZqETgG5aGfIWd1EB4qFAoSCYev621XitZqEYXxf1Pvd-vJEg1UZW5hbmN5IE5vLiAy,subpremise,3029,30 Agar Drive Tennancy No. 2 Truganina VIC 3029 Australia,1,OK
96,"16b Tyrone Pl, Erskine Park NSW 2759, Australia",-33.81616959999999,150.7912947,ROOFTOP,ChIJIXbD2EmQEmsRgHT2dpxKoZ0,street_address,2759,16B Tyrone Pl Erskine Park NSW 2759 Australia,1,OK
97,"Taipei City, Taiwan",25.0329636,121.5654268,APPROXIMATE,ChIJi73bYWusQjQRgqQGXK260bw,"administrative_area_level_1,political",,"Taipei, Taiwan 104, TW",1,OK
98,"8b/443 W Botany St, Rockdale NSW 2216, Australia",-33.9606713,151.1440063,ROOFTOP,EjA4Yi80NDMgVyBCb3RhbnkgU3QsIFJvY2tkYWxlIE5TVyAyMjE2LCBBdXN0cmFsaWEiHhocChYKFAoSCc1rjZJWtxJrEVYjuIDE3nR8EgI4Yg,subpremise,2216,Unit 8B 443 West Botany Street Rockdale NSW 2216,1,OK
99,"Partners Life house 33/45 Hurstmere Road, Takapuna, Auckland 0622, New Zealand",-36.7880923,174.7729684,ROOFTOP,ChIJuW1Q0dc5DW0RjkNlEIlz-SI,subpremise,0622,"4th Floor, 33-45 Hurstmere Road Takapuna, Auckland 0622",1,OK
100,,,,,,,,"750A Chai Chee Road #07-17 Viva Business Park, Singapore 469001",0,REQUEST_DENIED
101,"5th Floor, 29/1 Thanon Phloen Chit, Khwaeng Lumphini, Khet Pathum Wan, Krung Thep Maha Nakhon 10330, Thailand",13.7435938,100.544167,ROOFTOP,Em01dGggRmxvb3IsIDI5LzEgVGhhbm9uIFBobG9lbiBDaGl0LCBLaHdhZW5nIEx1bXBoaW5pLCBLaGV0IFBhdGh1bSBXYW4sIEtydW5nIFRoZXAgTWFoYSBOYWtob24gMTAzMzAsIFRoYWlsYW5kIiUaIwoWChQKEgkNJVQG257iMBFloOqM7fylWBIJNXRoIEZsb29y,subpremise,10330,"5C 5th Floor, 29/1 Phloen Chit Rd, Lumphini, Pathum Wan, Bangkok 10330",1,OK
102,"Japan, 〒101-0051 Tokyo, Chiyoda City, Kanda Jinbōchō, 3-chōme−２３−３",35.6949338,139.7535147,ROOFTOP,ChIJe8ZyoRSMGGARUPJVALe8wIs,street_address,101-0051,"3-23-3 Kanda Jimbocho, Chiyoda-ku, Tokyo Maison Chiyoda 7F",1,OK
103,"1596/7 Chan 31 Alley, Khwaeng Thung Wat Don, Khet Sathon, Krung Thep Maha Nakhon 10120, Thailand",13.7059397,100.5248875,ROOFTOP,ChIJ_zY48bOY4jARJcx-0NmW-HA,"establishment,point_of_interest",10120,"898/32B, 19TH FLOOR, Office Tower 2, SV CITY, RAMA 3 ROAD, Bang Pong Pang, YANNAWA, BANGKOK 10120, THAILAND",3,OK
104,"Arcot Rd, Janaki Nagar, Alwartirunagar, Valasaravakkam, Chennai, Tamil Nadu, India",13.0434234,80.1828585,GEOMETRIC_CENTER,ElJBcmNvdCBSZCwgSmFuYWtpIE5hZ2FyLCBBbHdhcnRpcnVuYWdhciwgVmFsYXNhcmF2YWtrYW0sIENoZW5uYWksIFRhbWlsIE5hZHUsIEluZGlhIi4qLAoUChIJMetE2elmUjoRDn9iEEyEiosSFAoSCUn71i8sYVI6EXEjdJIDWeIp,route,,"No: 01, 2nd Floor, Janaki Nagar, Arcot road, Valsaravakkam, CHENNAI 600087 TAMIL NADU, INDIA",2,OK
105,"Lebuh Batu Nilam, Bandar Bukit Tinggi 1, 41200 Pelabuhan Klang, Selangor, Malaysia",3.007748,101.4408421,ROOFTOP,ChIJSbfXQJuszTER2SJltE0kH1Y,"establishment,point_of_interest,premise",41200,"B-3-2, BBT One The Towers, Lebuh Batu Nilam 1, Bandar Bukit Tinggi, 41200 Klang, Selangor, Malaysia",2,OK
106,"Prince Sultan Rd, Jeddah Saudi Arabia",21.6167409,39.1388759,GEOMETRIC_CENTER,ChIJeWKIjpPZwxURPAWesYCO5hU,route,,Prince Sultan Street – Taj Al Sultan Building Jeddah City – Kingdom of Saudi Arabia,1,OK
107,"Yi Hao Lu, 新洲 Fu Tian Qu, Shen Zhen Shi, Guang Dong Sheng, China, 518042",22.517026,114.044823,GEOMETRIC_CENTER,ChIJRROSvU3xAzQRcb8JJQB-ljA,"establishment,point_of_interest",518042,"China, Guangdong Province, Shenzhen, Nanshan, Creative Culture Park",1,OK
108,"Mu Po Furusungi Taluka-Haveli, Pune, Maharashtra 412308, India",18.4740769,73.9766151,GEOMETRIC_CENTER,ChIJh8XlwknowjsRYnlvXZFgNhs,"establishment,local_government_office,point_of_interest",412308,"405, SAPTARANG AKASH SOCIETY OPP PHURSUNGI GRAM PANCHAYAT, NEAR SP INFOCITY, PHURSUNGI, HADAPSAR  PUNE MAHARASHTRA INDIA 412308",3,OK
109,"No.8, Tiexin Industrial Park, 雨花台区南京市江苏省 China, 210000",31.980206,118.78305,GEOMETRIC_CENTER,ChIJBWP8RLuOtTURRksFgthkuys,"establishment,lodging,point_of_interest",210000,"6th Floor, Building 2, No. 170-1, Software Avenue, Yuhuatai District, Nanjing City, Jiangsu Province",1,OK
110,"485 Great South Road, Penrose, Auckland 1061, New Zealand",-36.9054848,174.8093317,ROOFTOP,ChIJdQNj-N1IDW0Rdvl5oQaQCzU,premise,1061,485 Great South Road Penrose Auckland 1061 New Zealand,1,OK
111,"Level 2/11 York St, Sydney NSW 2000, Australia",-33.8652858,151.2052783,ROOFTOP,ChIJ2w9o2ECuEmsRoXG8S_wKbDE,subpremise,2000,"Level 2, 11 York St Sydney, NSW 2000",1,OK
112,"Dr Annie Besant Rd, B Wing, BDD Chawls Worli, Worli, Mumbai, Maharashtra 400018, India",19.0019788,72.8161081,GEOMETRIC_CENTER,ChIJoWP-gZDO5zsRPanQrN0QZp0,"establishment,health,hospital,point_of_interest",400018,"RF3 Kakad Chambers Annexe, 1st Floor, Annie Besant Road, Next to Poddar Hospital, Worli, Mumbai - 400 018.",1,OK
113,"KAVERI COMPLEX, Nungambakkam, Chennai, Tamil Nadu 600034, India",13.0624918,80.24520059999999,GEOMETRIC_CENTER,ChIJdchb6GhmUjoRLD56adppHu4,premise,600034,"208 Kaveri Complex , Nungambakkam High Road Nungambakkam, Chennai 600034, INDIA.",1,OK
114,"5 Chome Toyosaki, Kita Ward, Osaka, 531-0072, Japan",34.7123305,135.4989741,APPROXIMATE,ChIJ74k_GpvmAGAR09NOc3WXY5E,"political,sublocality,sublocality_level_3",531-0072,"Syougyou Bldg. 7F,5-6-10 Toyosaki, Kita-ku, Osaka
531-0072, Japan",1,OK
115,"105-0013, Japan",35.657111,139.7556247,APPROXIMATE,ChIJZypHmsiLGGAReqMM35Z_AOY,postal_code,105-0013,"Nihonkochiku 2 Bldg. 5F, 2-7-15 Hamamatsu-cho, Minato-ku, Tokyo
105-0013, Japan",1,OK
116,"4 Challenge Ct, Sunshine Beach QLD 4567, Australia",-26.4049043,153.1027315,ROOFTOP,ChIJgbxfg2Rpk2sRK-t4yHOs9vQ,premise,4567,"4 CHALLENGE CT SUNSHINE BEACH, QUEENSLAND, 4567 Australia",1,OK
117,"2-chōme-9-8 Akebono, Kashiwa, Chiba 277-0841, Japan",35.8663972,139.9736561,ROOFTOP,ChIJDzIJ6-OcGGAR0BrLxXyxANU,premise,277-0841,"3F, 2-9-8, Akebono, Chiba, 277-0841, Japan",1,OK
118,"36 Belmont Rd, Belfast BT4 2AN, UK",54.6005076,-5.876172,ROOFTOP,ChIJ9xxdyYIJYUgRfQ9A9I5ZM_M,"cafe,establishment,food,point_of_interest,restaurant",BT4 2AN,"No36 & 37, Vijay Nivas Vinayaka Layout, Uttarahalli Bangalore-560 061. INDIA.",1,OK
119,"154, 501, Miyapur Rd, Vasanth Nagar Colony, Nizampet, Hyderabad, Telangana 500090, India",17.5413598,78.3895854,RANGE_INTERPOLATED,ElgxNTQsIDUwMSwgTWl5YXB1ciBSZCwgVmFzYW50aCBOYWdhciBDb2xvbnksIE5pemFtcGV0LCBIeWRlcmFiYWQsIFRlbGFuZ2FuYSA1MDAwOTAsIEluZGlhIjoaOAoxEi8KFAoSCWP_5IN0jss7EShy2Xu_-oTIEPUDKhQKEgkLlzGfC47LOxGv0dVYzc220RIDMTU0,subpremise,500090,"SYNO:154,D-501,BACHUPALLY NEVILLE SUNWAY OPUS INT AMEENPOOR, MIYAPUR Hyderabad TG 500049 IN",2,OK
120,"140 William St, Woolloomooloo NSW 2011, Australia",-33.8743855,151.2185771,ROOFTOP,ChIJJWzHsROuEmsRfBtCyutEuvo,premise,2011,"140 William Street East Sydney, NSW 2011 PO Box 3222 Parramatta, NSW 2150",1,OK
121,"101 Kenny St, Wollongong NSW 2500, Australia",-34.4341322,150.891355,ROOFTOP,ChIJ_0VG4LsZE2sRKmE6PXEccko,premise,2500,"101 Kenny Street Wollongong, NSW 2500 PO Box 1583 Wollongong, NSW 2500",1,OK
122,"660-0083, Japan",34.7133309,135.3956935,APPROXIMATE,ChIJWY81PkPuAGARq_9HXsI7QSc,postal_code,660-0083,"7-1-3 Doicho, Amagasaki-shi, Hyogo 660-0083",1,OK
123,"ul. ""Shar Planina"" 33, 1303 Sofia Center, Sofia, Bulgaria",42.6996387,23.3088112,ROOFTOP,ChIJT1TP9kOFqkAR9AhH1zRCQrI,premise,1303,"33 Shar Planina Str. 1303, Sofia, Bulgaria",2,OK
124,"Joop Geesinkweg 901, 1096 AZ Amsterdam, Netherlands",52.3352446,4.9348926,ROOFTOP,ChIJV_ped9sLxkcRy_fb9uiTCOo,street_address,1096 AZ,"Joop Geesinkweg 901 1114AB Amsterdam, The Netherlands",1,OK
125,"Trimurtee Nagar, Nagpur, Maharashtra 440022, India",21.1157472,79.0447306,APPROXIMATE,ChIJ6fOsbIu_1DsRHYASrg7gMTc,postal_code,440022,NAGPUR - 440022 INDIA,1,OK
126,"Kavuri Hills Rd, Phase 2, Kavuri Hills, Madhapur, Telangana, India",17.4380755,78.3923181,GEOMETRIC_CENTER,EkJLYXZ1cmkgSGlsbHMgUmQsIFBoYXNlIDIsIEthdnVyaSBIaWxscywgTWFkaGFwdXIsIFRlbGFuZ2FuYSwgSW5kaWEiLiosChQKEgkfEYAOW5HLOxHXgHZ39ziPqBIUChIJZSBLp1uRyzsRkiDYHk6DaD4,route,,"3-225/SH/401, 3rd Floor, Sterling Heights Mahindra Mind Space, Kavuri Hills, GB PET Phase 2 Road, Hyderabad - 500 033.",2,OK
127,"1 Chikkōyawatamachi, Sakai Ward, Sakai, Osaka 590-0901, Japan",34.5924256,135.4526757,ROOFTOP,ChIJ__8_UCrdAGARLt1Tet7kVXY,street_address,590-0901,"1 Chikkoyawatamachi, Sakai-ku, Sakai-shi, 590-0901 Nippon Steel Co., Ltd. Shaped Steel Center 2F",1,OK
128,"2-chōme-11 Takasago, Takaishi, Osaka 592-0001, Japan",34.5287624,135.4163829,ROOFTOP,ChIJre_isIjEAGARbruyl0LiaC0,premise,592-0001,"2-11 Takasago, Takaishi City, 592-0001",1,OK
129,"3 Shinminatochō, Izumiotsu, Osaka 595-0073, Japan",34.5137296,135.4044569,ROOFTOP,ChIJWfMGDl3EAGARvufIXBC4ow4,premise,595-0073,"3 Shinminato-cho, Izumiotsu-shi, 595-0073",1,OK
130,"Hamada-1555-16 Aboshiku, Himeji, Hyogo 671-1242, Japan",34.7678893,134.5750153,ROOFTOP,ChIJxUUy627lVDURc-nE2PpnHOc,premise,671-1242,"1555-16 Hamada, Aboshi-ku, Himeji 671-1242",1,OK
131,"1-chōme-21-22 Jūsōhonmachi, Yodogawa Ward, Osaka, 532-0024, Japan",34.7203932,135.4785648,ROOFTOP,ChIJZ_13eM_lAGARWDb-RU3MvZY,street_address,532-0024,"1-21-22 Jusohonmachi, Yodogawa-ku, Osaka 532-0024 (Sakura Building)",1,OK
132,"3-1 Hikarigaoka, Hikari, Yamaguchi 743-0023, Japan",33.9809997,131.9199959,ROOFTOP,ChIJgwTX_h0eRTURbvlFFu1XzgA,premise,743-0023,"3-1 Hikarigaoka, Hikari City, Yamaguchi Prefecture 743-0023 (203 in the Software Center)",1,OK
133,"Japan, 〒163-1190 Tokyo, Shinjuku City, Nishishinjuku, 6-chōme−22−１ 新宿スクエアタワー",35.6940797,139.687732,ROOFTOP,ChIJyamLRdTyGGARaBcS4WnQuAg,"establishment,point_of_interest",163-1190,"6-22-1 Nishi-Shinjuku, Shinjuku-ku, Tokyo Shinjuku Square Tower 3rd floor",1,OK
134,"New Taipei City, Taiwan",25.0169826,121.4627868,APPROXIMATE,ChIJX2S2sDhVXTQRwO0gZvoNqVo,"administrative_area_level_1,political",,"23145 New Taipei City New Store, Alley, Lane 45, 8 tampering, 5th Floor, No. 5",1,OK
135,"1660 Hope Dr, Santa Clara, CA 95054, USA",37.3981046,-121.9560672,ROOFTOP,ChIJFwWs-aLJj4ARwB_KVaUK-YA,premise,95054,"1660, Hope Drive, Santa Clara, California 95054, US",1,OK
136,"Dattapada Rd, Borivali, Mumbai, Maharashtra 400066, India",19.2240877,72.8596773,GEOMETRIC_CENTER,EjlEYXR0YXBhZGEgUmQsIEJvcml2YWxpLCBNdW1iYWksIE1haGFyYXNodHJhIDQwMDA2NiwgSW5kaWEiLiosChQKEgk_KmZKLbfnOxGj7MmHT1SLcBIUChIJtQQsS_y55zsRxECjc4-MLbk,route,400066,"F502, Country Park,  Dattapada Road, Borivali (E), Mumbai, Maharashtra 400066, IN",1,OK
137,"Swancreek Ct, Brampton, ON L6P, Canada",43.8000952,-79.6787525,GEOMETRIC_CENTER,ChIJ_UlvBBYjK4gR0f72WbpJWFM,route,L6P,"Swancreek CRT, Brampton, Toronto, Ontario L6W 3W8, CA",1,OK
138,"2nd A Main Rd, Sector 6, HSR Layout, Bengaluru, Karnataka, India",12.9155002,77.6287885,GEOMETRIC_CENTER,EkAybmQgQSBNYWluIFJkLCBTZWN0b3IgNiwgSFNSIExheW91dCwgQmVuZ2FsdXJ1LCBLYXJuYXRha2EsIEluZGlhIi4qLAoUChIJo7idEPMUrjsRt9HPvEWakuISFAoSCQM9X1nyFK47ERIlex4E1Ojl,route,,"L29, 2nd A Main, Sector 6, HSR Layout, Bengaluru, Karnataka, 560102 IN",1,OK
139,"1115, 1, Ganeshkhind Rd, Chaturshringi, Vaiduwadi, Shivajinagar, Pune, Maharashtra 411005, India",18.5412879,73.829871,ROOFTOP,EmAxMTE1LCAxLCBHYW5lc2hraGluZCBSZCwgQ2hhdHVyc2hyaW5naSwgVmFpZHV3YWRpLCBTaGl2YWppbmFnYXIsIFB1bmUsIE1haGFyYXNodHJhIDQxMTAwNSwgSW5kaWEiIBoeChYKFAoSCYXvQYZvv8I7EQQkVwyRPAMcEgQxMTE1,subpremise,411005,"VIKRAM MONARCH, 10th floor, CTS no 1115.A/1, Ganeshkhind Road,Shivaji Nagar, Pune 411016 Maharashtra,India.",1,OK
140,"Unitech Crest, Netaji Subhash Marg, Block C, Uday Nagar, Sector 45, Gurugram, Haryana 122003, India",28.4420119,77.0614523,ROOFTOP,ChIJ7eQeWIkYDTkRinupG6xe2SE,premise,122003,"UNITECH CREST, Greenwood City, Sec-45, Blk-C, Ground FloorGurgaon 122003, Haryana",1,OK
141,"4, Old Mahabalipuram Rd, Thirumalai Nagar Annexe, Tharamani, Chennai, Tamil Nadu 600113, India",12.958429,80.244194,ROOFTOP,ChIJXWzPMxBdUjoRojwD53SNCBQ,street_address,600113,"A North, 9th Floor, Tidel Park, No. 4 Rajiv Gandhi Salai, Taramani, Chennai 600113, Tamil Nadu",2,OK
142,,,,,,,,"# 43, 1st floor, 2nd stage, BHCS layout, Vijayanagar 2nd stage, Bengaluru 560040 Karnataka",0,INVALID_REQUEST
143,"D-507, T.T.C. Industrial Area, MIDC, Turbhe, Navi Mumbai, Maharashtra 400705, India",19.0619004,73.019977,ROOFTOP,ChIJwRY3rWfB5zsR0Yuh9-doF80,"establishment,point_of_interest",400705,"Shree Sawan Knowledge Park, 4th Floor, D 507, TTC Industrial Area, M.I.D.C., Turbhe Navi Mumbai 400705, Maharashtra",3,OK
144,"1-chōme-15-7 Awaza, Nishi Ward, Osaka, 550-0011, Japan",34.6804077,135.4938748,ROOFTOP,ChIJLzD1cALnAGARw3cF-5T8Elw,street_address,550-0011,"1-15-7 Awaza, Nishi-ku, Osaka-shi, Osaka",1,OK
145,"Japan, 〒134-0088 Tokyo, Edogawa City, Nishikasai, 6-chōme−12−８ ＪＡＷＡ",35.6628381,139.8595861,ROOFTOP,ChIJlxCk9uOHGGARVZE3LwE_GB0,premise,134-0088,"〒134-0088 6-12-8 Nishikasai, Edogawa-ku, Tokyo JAWA BLD 601",1,OK
146,"Crawford House, 70 Queen's Road Central, Central, Hong Kong",22.2826315,114.1555936,ROOFTOP,ChIJ-x18UnsABDQRdGp3YWkdXyM,premise,,"UNIT 1104 11/F CRAWFORD HOUSE 70 QUEEN'S ROAD CENTRAL, CENTRAL HONG KONG S.A.R.",1,OK
147,"135-0016, Japan",35.6716688,139.816345,APPROXIMATE,ChIJAVNcEgGJGGARRjS24mLlgs4,postal_code,135-0016,"Toyo MK Building, 7-2-14 Toyo, Koto-ku, Tokyo 135-0016",1,OK
148,"11 Chome Minami 1 Jonishi, Chuo Ward, Sapporo, Hokkaido 060-0061, Japan",43.0573422,141.3406489,APPROXIMATE,ChIJk6a88ZApC18Rl1cki5g97sI,"political,sublocality,sublocality_level_3",060-0061,"6-11 Minami 1 Jonishi, Chuo-ku, Sapporo, Hokkaido 060-0061 Sapporo Hokushin Building",1,OK
149,"2364-1 Motokomezaki, Naka, Ibaraki 311-0101, Japan",36.4832972,140.5412184,ROOFTOP,ChIJ2dCSR0QoImARqizyb_GjJmY,premise,311-0101,"2364-1 Motokomezaki, Naka City, Ibaraki Prefecture 311-0101",1,OK
150,"2-chōme-14-21 Nishiki, Naka Ward, Nagoya, Aichi 460-0003, Japan",35.16979660000001,136.900257,ROOFTOP,ChIJ4w60Xyp3A2ARgDNBhhNOBTg,street_address,460-0003,"2-14-21 Nishiki, Naka-ku, Nagoya-shi, Aichi 460-0003 Maruyama Nissei Building",1,OK
151,"1-chōme-27-12 Nishikujō, Konohana Ward, Osaka, 554-0012, Japan",34.6806904,135.4688405,ROOFTOP,ChIJP_pJfEfmAGARuoykjB47nFY,street_address,554-0012,"1-27-12 Nishikujo, Konohana-ku, Osaka-shi, Osaka 554-0012 Hitachi Logistics No. 2 Building",1,OK
152,"2-chōme-2-7 Kyūtarōmachi, Chuo Ward, Osaka, 541-0056, Japan",34.6805235,135.5056363,ROOFTOP,ChIJ23a6lxjnAGAR7U9waL0mQos,street_address,541-0056,"2-2-7 Kyutaromachi, Chuo-ku, Osaka-shi, Osaka 541-0056 Yamaguchi Kosan Sakaisuji Building",1,OK
153,,,,,,,,"Hakata Ekimae C-9 Building, 4-2-20 Hakata Ekimae, Hakata-ku, Fukuoka 812-0011, Fukuoka Prefecture",0,ZERO_RESULTS
154,"Japan, 〒812-0011 Fukuoka, Hakata Ward, Hakata Ekimae, 2-chōme−9−２８ ２Ｆ",33.5917187,130.41452,ROOFTOP,ChIJQYD8nsCRQTURd2pqEB2qsjA,"establishment,point_of_interest",812-0011,"2-9-28 Hakata Ekimae, Hakata-ku, Fukuoka 812-0011, Fukuoka Prefecture, Fukuoka Chamber of Commerce Building 8F",2,OK
155,"Trivandrum Vizhinjam Rd, Kamaleshwaram, Thiruvananthapuram, Kerala, India",8.4668641,76.9483413,GEOMETRIC_CENTER,EklUcml2YW5kcnVtIFZpemhpbmphbSBSZCwgS2FtYWxlc2h3YXJhbSwgVGhpcnV2YW5hbnRoYXB1cmFtLCBLZXJhbGEsIEluZGlhIi4qLAoUChIJDx20yT27BTsRgvd6kv4iR9ASFAoSCeEM7NYWuwU7Ebhw6PtIQ12F,route,,"Trivandrum Vizhinjam Road, Kamaleshwaram, Thiruvananthapuram-695009, Kerala, India",1,OK
156,"Punjakuzhi Rd, Puthenpally, Varapuzha, Kerala 683517, India",10.0871095,76.2767497,GEOMETRIC_CENTER,ChIJ2W8giQsPCDsRBG3CR315RBA,"establishment,point_of_interest",683517,"Vithayathil House, KunnukaraN. Aduvassery, S. Aduvassery P.O. Aluva, ERNAKULAM, INDIA 683578",2,OK
157,"12f, No. 563, Section 4, Zhongxiao E Rd, Xinyi District, Taipei City, Taiwan 110",25.0415889,121.56405,ROOFTOP,ElAxMmYsIE5vLiA1NjMsIFNlY3Rpb24gNCwgWmhvbmd4aWFvIEUgUmQsIFhpbnlpIERpc3RyaWN0LCBUYWlwZWkgQ2l0eSwgVGFpd2FuIDExMCIfGh0KFgoUChIJqQxsOLmrQjQRF0m-TeE0yDISAzEyZg,subpremise,110,"12F., No.563, Sec. 4, Zhongxiao E. Rd., Xinyi Dist., Taipei City",1,OK
158,,,,,,,,"	6F M2 Building 2-8-1 Tanimachi Chuo-ku, Osaka Japan 5400012",0,ZERO_RESULTS
159,"2-chōme-15-15 Nihonbashiningyōchō, Chuo City, Tokyo 103-0013, Japan",35.6848227,139.7857667,ROOFTOP,ChIJv_4ufk-JGGARLq9Ao48qbF8,street_address,103-0013,"	7F, Shinsendo BLDG 2-15-15, Nihonbashi Ningyocho, Chuo-ku, Tokyo Japan 103-0013",1,OK
160,"Deungchon-dong, Gangseo-gu, Seoul, South Korea",37.5671533,126.8414978,GEOMETRIC_CENTER,ChIJWbtLKXScfDUR5q0VM2dY4x8,"establishment,point_of_interest",157-033,"	B-707 Kangseo Hangang XII Tower, Yangcheon-ro, Kangseo-ku, Seoul, S.Korea",1,OK
161,"2f, No. 43, Keda 1st Rd, Zhubei City, Hsinchu County, Taiwan 302",24.8220001,121.0084861,ROOFTOP,EkAyZiwgTm8uIDQzLCBLZWRhIDFzdCBSZCwgWmh1YmVpIENpdHksIEhzaW5jaHUgQ291bnR5LCBUYWl3YW4gMzAyIh4aHAoWChQKEgmJ8RXtjDZoNBGBggeLoUl3VBICMmY,subpremise,302,"2F, No.43, Keda 1st Rd., Zhubei City, Hsinchu County 302, Taiwan (R.O.C.)",1,OK
162,"Taichung, North District, Taichung City, Taiwan",24.1631651,120.6746691,APPROXIMATE,ChIJ0fJdV2U9aTQRCnt0UfuU1I0,"colloquial_area,locality,political",,"Room 3, 5th floor, No.14, Gingchen Road, Taichung, Taiwan, R.O.C.",1,OK
163,"Rm. B, No. 29, Haibian Rd, Lingya District, Kaohsiung City, Taiwan 802",22.615809,120.293179,ROOFTOP,EkZSbS4gQiwgTm8uIDI5LCBIYWliaWFuIFJkLCBMaW5neWEgRGlzdHJpY3QsIEthb2hzaXVuZyBDaXR5LCBUYWl3YW4gODAyIiEaHwoWChQKEglFk8rpgANuNBEPAIUayCqr5RIFUm0uIEI,subpremise,802,"	Rm. B, 23F., No.29, Haibian Rd., Lingya Dist., Kaohsiung City 802, Taiwan （R.O.C.）",2,OK
164,"No. 8, Siwei 3rd Rd, Lingya District, Kaohsiung City, Taiwan 802",22.619905,120.3111556,RANGE_INTERPOLATED,EkBOby4gOCwgU2l3ZWkgM3JkIFJkLCBMaW5neWEgRGlzdHJpY3QsIEthb2hzaXVuZyBDaXR5LCBUYWl3YW4gODAyIjASLgoUChIJDQnPZJsEbjQRX-C_nTuOgT4QCCoUChIJJaxpSIMEbjQRjIsTnG-rR5E,street_address,802,"	Rm.D, 8F.,No.263, Siwei 3th Rd., Lingya Dist., Kaohsiung City 802, Taiwan",2,OK
165,"3f, No. 16, Section 1, Nanjing E Rd, Zhongshan District, Taipei City, Taiwan 10491",25.0520293,121.5232592,ROOFTOP,ElIzZiwgTm8uIDE2LCBTZWN0aW9uIDEsIE5hbmppbmcgRSBSZCwgWmhvbmdzaGFuIERpc3RyaWN0LCBUYWlwZWkgQ2l0eSwgVGFpd2FuIDEwNDkxIh4aHAoWChQKEgnn9eTSaKlCNBHvf3Y5YP1gTxICM2Y,subpremise,10491,"3F, No. 16, Section 1, Nánjīng East Rd, Jhongshan District Taipei City, Taiwan 104",1,OK
166,"1f, No. 982號, Section 2, Huanzhong Rd, Xitun District, Taichung City, Taiwan 407",24.1875829,120.6378828,ROOFTOP,ElIxZiwgTm8uIDk4MuiZnywgU2VjdGlvbiAyLCBIdWFuemhvbmcgUmQsIFhpdHVuIERpc3RyaWN0LCBUYWljaHVuZyBDaXR5LCBUYWl3YW4gNDA3Ih4aHAoWChQKEgmX3p-3FhZpNBFfXbtVHkCSBBICMWY,subpremise,407,"1F,No.982,Sec.2,Huanzhong Rd., Xitun Dist., Taichung City 407, Taiwan",1,OK
167,"5f, No. 8-1, Hangqin N Rd, Dayuan District, Taoyuan City, Taiwan 337",25.0921823,121.247434,ROOFTOP,EkQ1ZiwgTm8uIDgtMSwgSGFuZ3FpbiBOIFJkLCBEYXl1YW4gRGlzdHJpY3QsIFRhb3l1YW4gQ2l0eSwgVGFpd2FuIDMzNyIeGhwKFgoUChIJv-PvS5qfQjQREBwEopchhigSAjVm,subpremise,337,"	5B51,5F,No.8-1, Hangqin N. Rd., Dayuan Township, Taoyuan County 337, Taiwan (R.O.C.)",2,OK
168,"3f, No. 16, Section 1, Nanjing E Rd, Zhongshan District, Taipei City, Taiwan 10491",25.0520293,121.5232592,ROOFTOP,ElIzZiwgTm8uIDE2LCBTZWN0aW9uIDEsIE5hbmppbmcgRSBSZCwgWmhvbmdzaGFuIERpc3RyaWN0LCBUYWlwZWkgQ2l0eSwgVGFpd2FuIDEwNDkxIh4aHAoWChQKEgnn9eTSaKlCNBHvf3Y5YP1gTxICM2Y,subpremise,10491,"	3F,No.16, Sec. 1, Nanjing E. Rd., Zhongshan Dist., Taipei City 104, Taiwan",2,OK
169,"7f, No. 6, Housheng Rd, Luzhu District, Taoyuan City, Taiwan 338",25.0551802,121.2784485,ROOFTOP,EkA3ZiwgTm8uIDYsIEhvdXNoZW5nIFJkLCBMdXpodSBEaXN0cmljdCwgVGFveXVhbiBDaXR5LCBUYWl3YW4gMzM4Ih4aHAoWChQKEgkFNEg3CaBCNBERj2N4CDMbYxICN2Y,subpremise,338,"	7F., No.6, Housheng Rd., Luzhu Dist., Taoyuan City 33855, Taiwan",2,OK
170,"807, No. 6, Lixing 6th Rd, East District, Hsinchu City, Taiwan 300",24.7734625,121.0141162,ROOFTOP,EkI4MDcsIE5vLiA2LCBMaXhpbmcgNnRoIFJkLCBFYXN0IERpc3RyaWN0LCBIc2luY2h1IENpdHksIFRhaXdhbiAzMDAiHxodChYKFAoSCfN9BekgNmg0EdlYWpizQetnEgM4MDc,subpremise,300,"807, 8F, No. 6, Lìxíng 6th Rd, Dong District Hsinchu City, Taiwan 300",4,OK
171,"409 N Oak St, Inglewood, CA 90302, USA",33.96767579999999,-118.3668804,ROOFTOP,ChIJ9Xo9pxe3woARnp63sS1Wm4c,street_address,90302,"	409 N. Oak Street, Inglewood, Ca 90302, USA",1,OK
172,"153-67 146th Ave, Jamaica, NY 11434, USA",40.6650991,-73.784373,ROOFTOP,ChIJm3MBNeZmwokRRF0NAI1-Fec,premise,11434,"	67-16 146th Ave, Jamaica, NY11434, USA",1,OK
173,"Tower, 6th Fl, 603 Chan Rd, Khwaeng Thung Wat Don, Khet Sathon, Krung Thep Maha Nakhon 10120, Thailand",13.7122863,100.5205711,RANGE_INTERPOLATED,EmZUb3dlciwgNnRoIEZsLCA2MDMgQ2hhbiBSZCwgS2h3YWVuZyBUaHVuZyBXYXQgRG9uLCBLaGV0IFNhdGhvbiwgS3J1bmcgVGhlcCBNYWhhIE5ha2hvbiAxMDEyMCwgVGhhaWxhbmQiRBpCCjESLwoUChIJj__CKciY4jARjYMU84oIYogQ2wQqFAoSCRG8xCnImOIwEZ9u9KOGj0zwEg1Ub3dlciwgNnRoIEZs,subpremise,10120,"	2/22 Iyara Tower, 6th Fl., Unit 603,Chan Rd., Thungwatdon, Sathorn, Bangkok 10120",2,OK
174,"10 Ung Pokun (St. 109), Phnom Penh, Cambodia",11.5690237,104.9159038,ROOFTOP,ChIJ291T2UFRCTERJCEuuNslwoY,"establishment,point_of_interest,real_estate_agency",,"	Room 3FA ,Vtrust Office Center, St. 109, Sangkat Mittapheap, Khan 7 Makara, Phnom Penh, Cambodia",1,OK
175,"201, 203 Đ. Cách Mạng Tháng 8, Phường 4, Quận 3, Thành phố Hồ Chí Minh, Vietnam",10.7756313,106.6851005,ROOFTOP,ChIJCasPWCQvdTERmxFXpBGPtAE,subpremise,,"	11F, No.201-203 Cach Mang Thang Tam St., Ward 4, Dist 3, Ho Chi Minh city, Viet Nam",3,OK
176,"20 Lê Hồng Phong, Đông Khê, Ngô Quyền, Hải Phòng, Vietnam",20.8495472,106.7048794,ROOFTOP,ChIJhZSppb56SjERVd6MCht1M2A,street_address,,"	RM509B, 5F, TD Business Center Tower, No. 20, Le Hong Phong St., Ngo Quyen Dist., Hai Phong, Vietnam",2,OK
177,"249 Nguyễn Văn Linh, Vĩnh Trung, Thanh Khê, Đà Nẵng 550000, Vietnam",16.0598937,108.2126512,ROOFTOP,ChIJp4Zt6LUZQjERWznjT2tCbTU,street_address,550000,"	5 Floor, Thanh Loi Building, 249 Nguyen Van Linh St. Vinh Trung Ward, Thanh Khe Dist, Da Nang City, Vietnam 550000",3,OK
178,"9 Đào Duy Anh, Phương Liên, Đống Đa, Hà Nội, Vietnam",21.0082592,105.8389109,ROOFTOP,ChIJC4fhiIerNTERuZ8gxrgyxB8,"establishment,point_of_interest,real_estate_agency",,"5 Floor, Dao Duy Anh Tower. No. 9, Dao Duy Anh, Dong Da, Hanoi, Vietnam",1,OK
179,"1605, Ayala Tower One, Ayala Ave, Makati, Metro Manila, Philippines",14.5565232,121.022311,ROOFTOP,EkMxNjA1LCBBeWFsYSBUb3dlciBPbmUsIEF5YWxhIEF2ZSwgTWFrYXRpLCBNZXRybyBNYW5pbGEsIFBoaWxpcHBpbmVzIiAaHgoWChQKEgm1cLaLBcmXMxGjugqbul6BDxIEMTYwNQ,subpremise,,"Unit 1605, 16/F, Ayala Tower One, Ayala Ave., Makati City Philippines 1226",1,OK
180,"2, 13, Jalan Mahogani 5, Bandar Botanik, 41200 Klang, Selangor, Malaysia",2.9969609,101.4451109,ROOFTOP,ChIJS3WD_4eszTEREgyJLNWV-sU,subpremise,41200,"13-2, Jalan Mahogani 5/KS7, Bandar Botanic, 41200 Selangor Darul Ehsan, Malaysia",1,OK
181,"Hunza Tower, Jalan Kelawei, 10250 George Town, Pulau Pinang, Malaysia",5.434832999999999,100.311044,GEOMETRIC_CENTER,ChIJ8z2DxwbDSjARZ8woNuqbUy0,"establishment,general_contractor,point_of_interest",10250,"	163E, Level 16, Hunza Tower Gurney Paragon, Jalan Kelawei, Georgetown, 10250 Penang, Malaysia",1,OK
182,,,,,,,,115 Airport Cargo Road Changi Airfreight Centre Cargo Agents Bldg C #06-19 Singapore 819466,0,REQUEST_DENIED
183,,,,,,,,119 Airport Cargo Road#01-01/02 changi Cargo Agents Megaplex 1 Singapore,0,REQUEST_DENIED
184,"Blok P No, Jl. Letjen Suprapto No.6, RT.1/RW.3, Cemp. Baru, Kec. Kemayoran, Kota Jakarta Pusat, Daerah Khusus Ibukota Jakarta 10640, Indonesia",-6.1722003,106.8639931,ROOFTOP,Eo4BQmxvayBQIE5vLCBKbC4gTGV0amVuIFN1cHJhcHRvIE5vLjYsIFJULjEvUlcuMywgQ2VtcC4gQmFydSwgS2VjLiBLZW1heW9yYW4sIEtvdGEgSmFrYXJ0YSBQdXNhdCwgRGFlcmFoIEtodXN1cyBJYnVrb3RhIEpha2FydGEgMTA2NDAsIEluZG9uZXNpYSIlGiMKFgoUChIJgy4RCqv1aS4RsOIB3wldPCMSCUJsb2sgUCBObw,subpremise,10640,"Ruko Mega Grosir Cempaka Mas Blok P No. 6 Jl. Letjen Suprapto, Jakarta 10640, Indonesia",3,OK
185,"Nangang, Harbin, Heilongjiang, China",45.7602099,126.66837,APPROXIMATE,ChIJIcgm1bB5RF4RZA29COpGXqg,"political,sublocality,sublocality_level_1",,"	Room109,No.34, Development Zone, Nangang District Harbin, Heilongjiang,China 150000",1,OK
186,"Zhongshan, Dalian, Liaoning, China",38.9186399,121.64511,APPROXIMATE,ChIJMdDtIa2MhTURJHNwupmjtIo,"political,sublocality,sublocality_level_1",,	ROOM2402，China Life Insurance Mansion，NO.26 Renmin Road，Zhongshan DIST，Dalian China,1,OK
187,"Qingnian Street, Shen He Qu, Shen Yang Shi, China, 110069",41.79224,123.432862,GEOMETRIC_CENTER,ChIJnfw6iemHL14RPfOOr0iJwUk,"establishment,point_of_interest,subway_station,transit_station",110069,"	Room 1007,International Trade Building,No.35,Qingnian Street , Shenhe District, Shenyang, Liaoning P.R. China",2,OK
188,"Nan Jing Lu, China, 300051",39.11928,117.19529,GEOMETRIC_CENTER,EhpOYW4gSmluZyBMdSwgQ2hpbmEsIDMwMDA1MSIuKiwKFAoSCctZeqeh_e01EZ4B6Gcu4Ha3EhQKEgmTVXoddf3tNRHqhS1d6KmxRg,route,300051,"	Suite 808, No. 189, The Exchange Tower 1, Nanjing Road, Tianjin 300051, China",1,OK
189,"Shunyi District, Beijing, China",40.0577176,116.8665467,APPROXIMATE,ChIJG3q2nWMO8TUR4Z86a0ZFxiY,"political,sublocality,sublocality_level_1",,"Room 706, Building C, Hangcheng Plaza, No.2 ,Jinsui Road, Shunyi district, Beijing",1,OK
190,"Zhong Hua Bei Da Jie, Xin Hua Qu, Shi Jia Zhuang Shi, He Bei Sheng, China",38.10062,114.47776,GEOMETRIC_CENTER,EklaaG9uZyBIdWEgQmVpIERhIEppZSwgWGluIEh1YSBRdSwgU2hpIEppYSBaaHVhbmcgU2hpLCBIZSBCZWkgU2hlbmcsIENoaW5hIi4qLAoUChIJayKB1Src5jURy0DLbGgfe-wSFAoSCWHLJthv3OY1EQpazBZqgvu4,route,,"	Room 1510, Rongding Building, No. 226 Zhonghua North Avenue, Xinhua District, Shijiazhuang, Hebei, China, 050000",1,OK
191,"Ning Xia Lu, Shan Dong Sheng, China",36.08056,120.40415,GEOMETRIC_CENTER,EiNOaW5nIFhpYSBMdSwgU2hhbiBEb25nIFNoZW5nLCBDaGluYSIuKiwKFAoSCUOfVU3-EJY1EXX6uNhc3d6HEhQKEglTGcoRXBCWNRE6ngHVuwDdeA,route,,"	Floor 22, Block 1, Software Park, No. 288, Ningxia Road, Shinan District, Qingdao, Shandong, China 266071",1,OK
192,"Shan Dong Guo Ji Mao Yi Da Sha, 海泊桥 Shi Nan Qu, Qing Dao Shi, Shan Dong Sheng, China, 266001",36.06263,120.3146307,ROOFTOP,ChIJD3EjX4kPljURDd75Yg7ni5g,premise,266001,"	Rm1218 Shandong International Trade Building No.51 Taiping Road,Qingdao,China 266001",1,OK
193,"Yantai, China, 264000",37.5128199,121.36978,APPROXIMATE,ChIJvcF1NjNikDURqdtQTR3GXV8,postal_code,264000,"	29 Floor, E-Tong International Tower,No.11 South Avenue, Yantai, Shandong Province, P.R. China ( 264000)",1,OK
194,"Shuang Ta Xi Jie, Ying Ze Qu, Tai Yuan Shi, Shan Xi Sheng, China",37.84566,112.55613,GEOMETRIC_CENTER,ChIJkURcaW-pCjYReE0GKoRndkA,route,,"	Room. 1612 Block A, XinShiJie Building, No.49-1 ShuangTa West Street, Yingze District, Taiyuan City, Shanxi Province, P. R. China 030001",1,OK
195,"Jinshui District, Zhengzhou, China, 450046",34.768262,113.770298,GEOMETRIC_CENTER,ChIJlcB-hJde1zUR8hHKcDxM0rY,"establishment,lodging,point_of_interest",450046,"	Room 2207-2210, Floor 22, Unit 2, Building 2, 88 Jinshui East Road, Zhengdong New District, Zhengzhou city, Henan Province, P. R. China (450000)",3,OK
196,"Chang An Bei Lu, Bei Lin Qu, Xi An Shi, Shan Xi Sheng, China",34.23921,108.94693,GEOMETRIC_CENTER,ChIJjSelAIFwYzYRe9Ib0-Rz5Lc,route,,"	Room 2106, 21st Floor, Building 1, Shaanxi International Convention and Exhibition Building, No. 1 Chang'an North Road, Beilin District, Xi'an city, Shaanxi Province, P. R. China",1,OK
197,"Qing Long Jie, Qing Yang Qu, Cheng Du Shi, Si Chuan Sheng, China",30.66976,104.0641,GEOMETRIC_CENTER,EkBRaW5nIExvbmcgSmllLCBRaW5nIFlhbmcgUXUsIENoZW5nIER1IFNoaSwgU2kgQ2h1YW4gU2hlbmcsIENoaW5hIi4qLAoUChIJQxR93S3F7zYR-4F2X2KDfDsSFAoSCdNQARmz3O82ERjDOqfBS2u3,route,,"	Room 916, 13/F, NO.2 Building, No.27 Qinglong Street, Qingyang District, Chengdu, P.R. China 610000",1,OK
198,"Yubei District, China, 401120",29.6802499,106.63487,APPROXIMATE,ChIJjWlxS3cukzYRsiauQZoHXj4,postal_code,401120,"8 Qixia Road, Liangjiang New Area, 16 buildings 11-9 in the era of Jinmao, Chongqing Province, P. R. China 401120",1,OK
199,"Chang Jiang Lu, He Fei Shi, An Hui Sheng, China",31.08485,117.3294,GEOMETRIC_CENTER,Ei9DaGFuZyBKaWFuZyBMdSwgSGUgRmVpIFNoaSwgQW4gSHVpIFNoZW5nLCBDaGluYSIuKiwKFAoSCeMEqLu-GMw1EY5iZj0wDiBDEhQKEgmdzwfyDmTLNRGZMsPycxEV3A,route,,"	RM7005, JinCheng Building, NO.436, Middle Changjiang Road, HeFei, AnHui Province, China",2,OK
200,"250 Jiang Han Lu, 江汉路商圈 Jiang Han Qu, Wu Han Shi, Hu Bei Sheng, China, 430000",30.58535,114.286141,ROOFTOP,ChIJw0c--eGuLjQRq0hEvUJ_gRU,"establishment,point_of_interest",430000,"	Room 1501, Level 15, Shipping International Plaza, NO.250 Jianghan Road, JiangAn District, Wuhan,P.R. China 430014",1,OK
201,"Wu Yi Lu, Hu Nan Sheng, China",27.00376,113.34092,GEOMETRIC_CENTER,ChIJRaxjln8HIDQRP6BYTIKQpLc,route,,"	1502, No.1.Boulevard2 Wu Yi Road(west), FuRong District,ChangSha, Hunan, China 410005",1,OK
202,"Hong Gu Nan Da Dao, Xin Jian Qu, Nan Chang Shi, Jiang Xi Sheng, China",28.64825,115.83863,GEOMETRIC_CENTER,ChIJ7_aVmRzIOjQRm_7FzoPaato,route,,"Room 1208, Wall Street Plaza ,1669 Honggu Central Avenue, Honggutan District, Nanchang, Jiangxi, China (330038)",2,OK
203,"Huo Ju Da Jie, Qing Shan Hu Qu, Nan Chang Shi, Jiang Xi Sheng, China",28.69056,115.96193,GEOMETRIC_CENTER,ChIJWQrrA8e-OjQRaXUR2TVEDuo,route,,"	No.189 Huo Ju Street, Gao Xin Developmant Zone, Nanchang City, Jiang Xi Province, China",1,OK
204,"Xia Men Di Yi Guang Chang, 莲花 Si Ming Qu, Xia Men Shi, Fu Jian Sheng, China, 361001",24.4493903,118.0802153,ROOFTOP,ChIJDYH6nmODFDQRx49dqV2-1mY,premise,361001,"8FL, Rm803-805, xiamen top plaza, No.2, Lujiang Road, Xiamen, China 361001",1,OK
205,"Wu Si Lu, 五四路中央商务区 Gu Lou Qu, Fu Zhou Shi, Fu Jian Sheng, China, 350001",26.0966832,119.3055696,GEOMETRIC_CENTER,ChIJXxQNF0tRQDQRCm8TrF5ZuhY,"establishment,parking,point_of_interest",350001,"Room 719, 14th Floor, South Building, Huacheng International Building, No. 162, Wusi Road, Fuzhou, China 350003",1,OK
206,"An Lan Lu, Zhong Shan Shi, Guang Dong Sheng, China, 528400",22.51666,113.36608,GEOMETRIC_CENTER,ChIJOTbk3TstAjQRDpRa6A0DHeQ,route,528400,"Room P, 19th floor, Commercial Building, Flat B Zhongken Plaza, No.18 Anlan Road., Zhongshan, Guangdong Province, P.R.China 528402",1,OK
207,"Tian He Lu, Guang Zhou Shi, Guang Dong Sheng, China",23.13359,113.32588,GEOMETRIC_CENTER,ChIJJYK8iv3-AjQRzJabNc0ls_E,route,,"Room.1505-06, Eastern Tower,THE Plaza, No.625 Tianhe Road, Guangzhou, China",1,OK
208,"Tian He Lu, Guang Zhou Shi, Guang Dong Sheng, China",23.13359,113.32588,GEOMETRIC_CENTER,ChIJJYK8iv3-AjQRzJabNc0ls_E,route,,"Room.1507, Eastern Tower,THE Plaza, No.625 Tianhe Road, Guangzhou, China",1,OK
209,"China, Guang Dong Sheng, Shen Zhen Shi, Luo Hu Qu, 建设路2016号",22.540431,114.116513,ROOFTOP,ChIJcaUzhMD1AzQRx9qDhpX5204,"establishment,point_of_interest,premise",,"A2, 23/F, Block A, Nanfang Securities Building, No.2018 Jianshe Road, Luohu, Shenzhen, P. R. China (518001)",2,OK
210,"2028, Huangcheng Square Podium, No, Street Port Community, 7 Futian Rd S, Closed Area, 福田区深圳市广东省 China",22.5308,114.08251,ROOFTOP,ChIJKWjmuCX0AzQR-6DZuyL-Upc,"establishment,lodging,point_of_interest",,"F35, 4th Floor, Podium Building, Huangcheng Plaza, No. 7 Futian South Road, Futian District, Shenzhen",1,OK
211,"Container Port Rd S, Kwai Chung, Hong Kong",22.3430143,114.1269711,GEOMETRIC_CENTER,ChIJMcURwLP4AzQRsAJzlInAWSs,"establishment,point_of_interest",,"13005E-13006E,13/F., ATL Logistics Centre B, Berth 3, Kwai Chung Container Terminal, Kwai Chung, N.T.",2,OK
212,"663 King's Rd, Tsat Tsz Mui, Hong Kong",22.2916982,114.2081677,ROOFTOP,ChIJ4zWU4REBBDQRFxv8FHhHl3k,"establishment,point_of_interest",,"Rm601-7,Prosperity Millennia Plaza, 663 King's Rd.,Quarry Bay,HK.",2,OK
213,,,,,,,,"Block G, 3/F & G/F G1 & Block H, G/ F, Yiu Lian Dockyard Ltd., 1-7 Sai Tso Wan Road, Tsing Yi, H.K.",0,ZERO_RESULTS
214,"Tai Hing Industrial Building, 3 Tsing Yeung Circuit, Tuen Mun, Hong Kong",22.4001887,113.9703278,ROOFTOP,ChIJfUl4ayT7AzQRJv1wGCz8Gd8,premise,,"Tai Hing Industrial Building, 3 Tsing Yeung Circuit, Tuen Mun, New Territories, Hong Kong",1,OK
215,"Yiu Lian Dockyard, 1-7 Sai Tso Wan Rd, Sai Tso Wan, Hong Kong",22.3389746,114.0932118,ROOFTOP,ChIJL8JMNNT-AzQRxrgaAJk52-8,premise,,"Block H, Ground Floor, Yiu Lian Dockyard, 1-7 Sai Tso Wan Road, Tsing Yi, Hong Kong",1,OK
216,"Ning Chuan Lu, 江东区 Ning Bo Shi, Zhe Jiang Sheng, China, 315101",29.860469,121.617451,GEOMETRIC_CENTER,ChIJX3SyT6ViTTQRCaeoKCfvJEs,"establishment,point_of_interest",315101,"1103 Dongnan Building ,No. 258, Changle Road, Jiangdong District of the East New Town, Ningbo, Zhejiang Province, P.R.China 315040",1,OK
217,"Zhong Shan Xi Lu, Jia Xing Shi, China, 314031",30.75742,120.70706,GEOMETRIC_CENTER,Ei1aaG9uZyBTaGFuIFhpIEx1LCBKaWEgWGluZyBTaGksIENoaW5hLCAzMTQwMzEiLiosChQKEgklT3SHCzCzNRGhq3SWzI6fMhIUChIJbT4DIk8lszURrmRJ3H-dlxo,route,314031,"Room 908，CaiFu Place ，No527 West ZhongShan Road, XiuZhou District，JiaXing City，PRC 314031",2,OK
218,"266 Cheng Xin Da Dao, Yi Wu Shi, Jin Hua Shi, Zhe Jiang Sheng, China, 322023",29.346891,120.100987,ROOFTOP,ChIJmRNZ1ERUSTQRUPkGQdfvyq4,"establishment,parking,point_of_interest",322023,"Room 528, Block B, Yiwu Port, NO.266, Chengxin Ave, Yiwu, Zhejiang, Province, China (322100)",1,OK
219,"China, Zhe Jiang Sheng, Hang Zhou Shi, Gong Shu Qu, 大关路NO.197 邮政编码: 310014",30.3066003,120.1464449,GEOMETRIC_CENTER,ChIJnYU2u0tjSzQR67I179LjahM,"establishment,point_of_interest",310014,"Room 508-1, Building B, Ocean International Center, No. 355, Jinhua South Road, Gongshu District, Hangzhou, Zhejiang, China 310005",1,OK
220,"Changle District, Fuzhou, Fujian, China",25.9628299,119.52324,APPROXIMATE,ChIJkYP1bdWwQTQR4myc4cSG4OU,"political,sublocality,sublocality_level_1",,"Room 1107 Dongnan Building ,No. 258, ChangLe Road, Jiangdong District of the East New Town,Ningbo City,Zhejiang Province, P.R.China 315040",4,OK
221,"Hai Tian Lu, Chong Ming Qu, Shang Hai Shi, China, 202155",31.6205,121.44134,GEOMETRIC_CENTER,ChIJza7UiU0bsjUR2HVmN4mHVKQ,route,202155,"D2,2.Section, First Bonded Warehouse, First Hai Tian Road, Pudong, Shanghai City, 201202, China",2,OK
222,"Wan Hang Du Lu, 曹家渡 Jing An Qu, Shang Hai Shi, China, 200042",31.228023,121.428789,GEOMETRIC_CENTER,ChIJ0eOZpvZvsjURO57w5TVuKyw,"establishment,parking,point_of_interest",200042,"11F, Kaikai Plaza, No 888 Wanhangdu Road, Jinan District, Shanghai, 200042",1,OK
223,"Yin Xiang Lu, Jia Ding Qu, Shang Hai Shi, China, 201802",31.288352,121.320361,GEOMETRIC_CENTER,ChIJUfqxseRosjURqEZMyL_IGzk,"establishment,point_of_interest",201802,"Rm.803,8F，Changhui building.,No.799,yin xiang road,Shanghai,P.R.China 201802",1,OK
224,"Sheng Long Lu, Song Jiang Qu, Shang Hai Shi, China, 201615",31.10947,121.30966,GEOMETRIC_CENTER,ChIJvbkK9sphsjURRJTf5aoQXXE,route,201615,"No.536, Shenglong Road, Songjiang District, Shanghai",1,OK
225,"Hai Xu Lu, Pu Dong Xin Qu, China, 200137",31.33961,121.61151,GEOMETRIC_CENTER,EihIYWkgWHUgTHUsIFB1IERvbmcgWGluIFF1LCBDaGluYSwgMjAwMTM3Ii4qLAoUChIJzYNB5MsKsjURHL2OaQ0zFvgSFAoSCYENsqjXdLI1Edp8ekkmK6pX,route,200137,"Level 3,No.1439, Haixu Road, Shanghai, China (200137)",1,OK
226,"Jin Wen Lu, Pu Dong Xin Qu, Shang Hai Shi, China, 201323",31.10994,121.77572,GEOMETRIC_CENTER,ChIJiy9uKXKFrTURn_1DnlDR0Js,route,201323,"Room 203, No.1 building, No21 Jinwen Road, Pudong New District, Shanghai",2,OK
227,"Yangshupu Road station, Hong Kou Qu, Shang Hai Shi, China, 200082",31.251923,121.517216,GEOMETRIC_CENTER,ChIJwWo13jxxsjURHshMlLdsFB0,"establishment,point_of_interest,subway_station,transit_station",200082,"Room 5F/Room F2, No.61 YangShuPu Road, Shanghai, P.R. China 200082",1,OK
228,"Wan Hang Du Lu, 曹家渡 Jing An Qu, Shang Hai Shi, China, 200042",31.228023,121.428789,GEOMETRIC_CENTER,ChIJ0eOZpvZvsjURO57w5TVuKyw,"establishment,parking,point_of_interest",200042,"10F, Kaikai Plaza, No 888 Wanhangdu Road, Jinan District, Shanghai, 200042",1,OK
229,"China, Jiang Su Sheng, Su Zhou Shi, 平江区干将东路666号 邮政编码: 215005",31.308817,120.631547,ROOFTOP,ChIJNVWRISanszURdAhQu9kAkp0,"establishment,point_of_interest,premise",215005," 	Room 327,Heji Plaza, No.666 East Ganjiang Road, Suzhou, Jiangsu Province, P.R.China 215005",1,OK
230,"Chang Jiang Lu, China, 210005",32.04517,118.78696,GEOMETRIC_CENTER,Eh1DaGFuZyBKaWFuZyBMdSwgQ2hpbmEsIDIxMDAwNSIuKiwKFAoSCXMwdP30s8c1EdCshrIV0RbhEhQKEgnTog-ajYy1NREmOBNacgZXFA,route,210005,"	Room 909, No.99 Changjiang Road, Nanjing, P. R. China 210005",1,OK
231,"Hai Tang Bei Lu, Lian Yun Qu, Lian Yun Gang Shi, Jiang Su Sheng, China, 222043",34.75156,119.37144,GEOMETRIC_CENTER,ChIJZ1PxCarXuDUR_tzLyVqZYYI,route,222043,"	Room 513, Area B, Daluqiao International Business Mansion, No.188 North Haitang Road,Lianyungang City P.R.China",1,OK
232,"Zhong Shan Lu, Wu Xi Shi, Jiang Su Sheng, China",31.78109,119.96699,GEOMETRIC_CENTER,Ei9aaG9uZyBTaGFuIEx1LCBXdSBYaSBTaGksIEppYW5nIFN1IFNoZW5nLCBDaGluYSIuKiwKFAoSCRvZxDTzjrM1EdgVv--ePXx7EhQKEgmlpuBDWI6zNREmNf3EF-021Q,route,,"	Room J, 26th Floor, Block A, DongFang Plaza, No.343 Zhongshan Road, Cong'an District, Wuxi City, Jiangsu Province, P.R.China 214000",1,OK
233,"Veroda Rd, Cuncolim, Goa 403703, India",15.1910857,74.0114217,GEOMETRIC_CENTER,ChIJGS-ME0RNvjsRFbcKHo-pveM,route,403703,HNO 194-B FADTEWADDO VERODA CUNCOLIM SALCETE GOA MARGAO GA 403703 IN,1,OK
234,"Balgowlah NSW 2093, Australia",-33.794418,151.264853,APPROXIMATE,ChIJzwbb7l-pEmsRgKwyFmh9AQU,"locality,political",2093,"PO Box 213, Balgowlah NSW 2093, Australia",1,OK
235,"3333 Piedmont Rd NE #2050, Atlanta, GA 30305, USA",33.8459748,-84.3720101,ROOFTOP,ChIJKyGMmvUF9YgRztBOFbN9ECY,subpremise,30305,"3333 Piedmont Road, Suite 2050, Atlanta, Georgia 30305, US",1,OK
236,"China, Shang Hai Shi, Jing An Qu, 久光 Nan Jing Xi Lu, 1515号静安嘉里中心办公楼一座901 邮政编码: 200041",31.224595,121.450205,ROOFTOP,ChIJoX9ulANwsjURImN4Sm5dzpI,"establishment,point_of_interest",200041,"Level 29 Tower 1 Shanghai Jing An Kerry Centre, 1515 Nanjing West Road, Jing An District, Shanghai, CN",1,OK
237,"57 Mohamed Sultan Rd, Singapore 238997",1.2919025,103.8400045,ROOFTOP,ChIJ4WQafZ4Z2jERHmi7KyNEfFg,street_address,238997,"57 Mohamed Sultan Road, Singapore , 23, SG",1,OK
238,"Sahibabad, Ghaziabad, Uttar Pradesh, India",28.6620078,77.33668159999999,APPROXIMATE,ChIJpcUMN5v6DDkR1RoAvaHk2H4,"political,sublocality,sublocality_level_1",,"3/4 R P garden Sahibabad Ghaziabad, Uttar Pradesh, 201005,",1,OK
239,"Gurugram Rd, Haryana, India",28.4756584,76.8072233,GEOMETRIC_CENTER,EhtHdXJ1Z3JhbSBSZCwgSGFyeWFuYSwgSW5kaWEiLiosChQKEgnjxxn_7xQNOREmeSFu2hmwTxIUChIJ9eFRMgMaDTkRRPBowYN_T6o,route,,"Gurgaon Road, Gurgaon, Haryana 122017, IN",1,OK
240,"Somdutt Chamber 1, BHIKAJI CAMA PLACE, Bhikaji Cama Place, Rama Krishna Puram, New Delhi, Delhi 110066, India",28.5676248,77.1887297,ROOFTOP,ChIJVzEZHoQdDTkR3Mk4ex-tipE,premise,110066,"133, Ist Floor, Somdutt Chamber-1 5, Bhikaji Cama Place, New Delhi-110066.",1,OK
241,,,,,,,,"8801 Independence Ave Unit#13,, Canoga Park, CA, USA, -Zip -91304, California, California 91304, US",0,REQUEST_DENIED
242,"Headington Place, Mill St, Slough SL2 5EL, UK",51.5134037,-0.5901976999999999,ROOFTOP,ChIJDdkFq8p6dkgR2Zqq3VGbvHU,premise,SL2 5EL,"10, Headington Place, Mill Street, Slough,, Berkshire SL2 5EL, UK, Berkshire SL2 5EL, GB",1,OK
243,"17, Kungumam Nagar, Porur, Chennai, Tamil Nadu 600116, India",13.03118,80.156268,ROOFTOP,ChIJX7V4juJgUjoRVqILg-nblzk,street_address,600116,"17 , Kungumam Nagar, Porur , Chennai -600116, Chennai, Chennai 600116, IN",1,OK
244,"119 Genting Ln, Singapore 349570",1.3247108,103.8780345,ROOFTOP,ChIJyZb2QigY2jERwCoXVS5ISFg,street_address,349570,"119, Genting Lane, Singapore - 349570, Singapore, Singapore 349570, SG",1,OK
245,"Nishi-shimbashi, 1-chōme Toranomon, Minato City, Tokyo 105-0001, Japan",35.6699735,139.7502086,ROOFTOP,ChIJT094hpKLGGAR8AnpMgrNvU4,subpremise,105-0001,"3-2-1 Nishi-Shimbashi, Minato-ku, Tokyo 105-0003 Daiwa Nishi-Shimbashi Building 8F",3,OK
246,"4-3 Nihonbashihakozakichō, Chuo City, Tokyo 103-0015, Japan",35.6798559,139.7836339,ROOFTOP,ChIJW3kvsESJGGARsyNaTQPIbRk,street_address,103-0015,"4F, International Hakozaki Building, 4-3 Nihonbashi Hakozaki-cho, Chuo-ku, Tokyo",2,OK
247,"1-chōme-6-10 Kawaramachi, Chuo Ward, Osaka, 541-0048, Japan",34.6862368,135.5068421,ROOFTOP,ChIJ6aIlBSDnAGARIQkCqxpT2Gc,street_address,541-0048,"1-6-10 Kawaramachi, Chuo-ku, Osaka 541-0048 JP Building 3F",2,OK
248,"Ke Ji Yuan Lu, Jiang Gan Qu, Hang Zhou Shi, Zhe Jiang Sheng, China, 314423",30.30622,120.36967,GEOMETRIC_CENTER,ChIJE966taOXTDQRoAPsXAfq9Ns,route,314423,"Unit 33-36, 5th Floor, Building 5, No. 2, Kejiyuan Road, Baiyang Street, Hangzhou Economic and Technological Development Zone",2,OK
249,"2/129 B26, Unley SA 5061, Australia",-34.941412,138.6044612,ROOFTOP,ChIJG_ADuubOsGoRwOkY3OT4sMg,subpremise,5061,"Suite 2, 129 Greenhill Road Parkside  SA  5063",1,OK
250,,,,,,,,"#1353, A-Square, BCCHS Layout, Sir M. Visvesvaraya Square,, Near Holiday Village Resort, Off Kanakapura Road, Bengaluru, Karnataka 560062",0,INVALID_REQUEST
251,,,,,,,,"#310, Megha Center,Pune Solapur Road Hadpsar, Pune 411013",0,INVALID_REQUEST
252,,,,,,,,"#50, Near Tappsya Convent,Vinkar Colony,Manewada Square Nagpur 440024",0,INVALID_REQUEST
253,"Floor, 44, 44-39-11/2, Nandagiri Nagar Rd, Akkayyapalem, Visakhapatnam, Andhra Pradesh 530016, India",17.7329021,83.2961176,ROOFTOP,EmRGbG9vciwgNDQsIDQ0LTM5LTExLzIsIE5hbmRhZ2lyaSBOYWdhciBSZCwgQWtrYXl5YXBhbGVtLCBWaXNha2hhcGF0bmFtLCBBbmRocmEgUHJhZGVzaCA1MzAwMTYsIEluZGlhIiUaIwoWChQKEglPo47F20M5OhHhkbIQtAkE5RIJRmxvb3IsIDQ0,subpremise,530016,"1st Floor, 44 39 5/2, Nandagiri Nagar, Akkayyapalem, Vishakhapatanam, Andhra Pradesh 530016",1,OK
254,"6-chōme-12-2 Roppongi, Minato City, Tokyo 106-0032, Japan",35.6588686,139.7295979,ROOFTOP,ChIJx9-aGnaLGGARFBqx08MxhoY,premise,106-0032,"6-12-2 Roppongi, Minato-ku, Tokyo",1,OK
255,"1-chōme-18-4 Higashigotanda, Shinagawa City, Tokyo 141-0022, Japan",35.62657,139.7263983,ROOFTOP,ChIJg1ah0_uKGGAROcvrKqJfyMo,street_address,141-0022,"1-18-4 Higashigotanda, Shinagawa-ku, Tokyo
GTD East Building 6F",1,OK
256,"IIT Delhi Main Rd, IIT Campus, Hauz Khas, New Delhi, Delhi 110016, India",28.545718,77.19276789999999,GEOMETRIC_CENTER,ChIJtV8FufYdDTkRwKMeayYLwYE,"establishment,point_of_interest,university",110016,"Unit 6, 2nd Floor, TBIU, Synergy Building, Indian Institute of Technology (IIT Delhi), Hauz Khas, New Delhi-110016",2,OK
257,"32/34 Peter Brock Dr, Eastern Creek NSW 2766, Australia",-33.8029731,150.8767588,ROOFTOP,ChIJdXf3auKZEmsRPi1ZT2IZPFI,subpremise,2766,"3a/32 - 34 Peter Brock Dr, Eastern Creek NSW 2766, Australia",1,OK
258,"7-chōme-33-6 Nishikamata, Ota City, Tokyo 144-0051, Japan",35.5632519,139.7122316,ROOFTOP,ChIJRbyfUl1gGGARyGlWy2jhQ3Q,street_address,144-0051,"7-33-6 Nishikamata, Ota-ku, Tokyo 144-0051",1,OK
259,"697-3 Ebisunochō, Shimogyo Ward, Kyoto, 600-8310, Japan",34.9894158,135.7558493,ROOFTOP,ChIJyRU6ZqYIAWARWiJT3lP1pZQ,street_address,600-8310,"697-3 Ebisunocho, Shichijo-dori, Shimogyo-ku, Kyoto 600-8310",1,OK
260,"2-chōme-32-2 Akebonochō, Tachikawa, Tokyo 190-0012, Japan",35.7016378,139.4158242,ROOFTOP,ChIJFQlXH3DhGGARhG9vjBtcIeU,street_address,190-0012,"	2-32-2 Akebonocho, Tachikawa-shi, Tokyo 190-0012 Nakayama Headquarters Building 5FA",1,OK
261,"3-chōme-5-1 Bakurōmachi, Chuo Ward, Osaka, 541-0059, Japan",34.6785681,135.5010343,ROOFTOP,ChIJVVVl6BvnAGARfXLxmLK1n-A,"establishment,point_of_interest",541-0059,"16F Midosuji Grand Tower, 3-5-1 Bakuromachi, Chuo-ku, Osaka 541-0059",2,OK
262,"1-chōme-5-1 Kanda Sudachō, Chiyoda City, Tokyo 101-0041, Japan",35.6959995,139.7701342,ROOFTOP,ChIJd4zdJgOMGGARLTOeRw3dFtM,street_address,101-0041,"	1-5-1 Kanda Sudacho, Chiyoda-ku, Tokyo Toyo Sudacho Building 4F",1,OK
263,"510-0061, Japan",34.9612797,136.6276997,APPROXIMATE,ChIJAWw_tOCOA2ARtuTOBc2t7mo,postal_code,510-0061,"Yokkaichi, Mie 510-0061, Japan",1,OK
264,"2-chōme-22-18 Kamogawara, Fukui, 918-8057, Japan",36.0630491,136.1937094,ROOFTOP,ChIJtet9Ddm--F8RdXzlUyKBNr4,street_address,918-8057,"2-22-18 Kamogawara, Fukui City, Fukui Prefecture 918-8057",1,OK
