,formatted_address,latitude,longitude,accuracy,google_place_id,type,postcode,input_string,number_of_results,status
0,"305 W Broadway #147, New York, NY 10013, USA",40.7214998,-74.0042745,ROOFTOP,EiwzMDUgVyBCcm9hZHdheSAjMTQ3LCBOZXcgWW9yaywgTlkgMTAwMTMsIFVTQSIfGh0KFgoUChIJl1ZpD4tZwokRTYKURF6UFegSAzE0Nw,subpremise,10013,"305 West Broadway Suite 147,  New York, NY 10013",1,OK
1,"731 Market St #200, San Francisco, CA 94103, USA",37.7867914,-122.4040495,ROOFTOP,ChIJAYZWfIiAhYARD8vpq0lI3rg,subpremise,94103,"731 Market Street, 200, San Francisco, California 94103, US",1,OK
2,"Hardstrasse 201, 8005 Zürich, Switzerland",47.3861889,8.5172587,ROOFTOP,ChIJS-n6eD8KkEcRndxIl8RnWx8,"establishment,point_of_interest",8005,"Prime Tower, Hardstrasse 201, 8005 Zürich, Switzerland",1,OK
3,"Marktstraße 32-34, 65428 Rüsselsheim am Main, Germany",49.99254879999999,8.4125409,ROOFTOP,ChIJ_SPKFi6ZvUcR-nvatxNfzeE,street_address,65428,"Marktstrasse 32 – 34, 65428 Rüsselsheim am Main, Germany",1,OK
4,"7290 Virginia Pkwy STE 3000, McKinney, TX 75071, USA",33.2008489,-96.71235879999999,ROOFTOP,ChIJq6pq-rEVTIYRCiM0jSWlo1M,subpremise,75071,"7290 Virginia Parkway Suite 3000, McKinney, TX 75071, United States",1,OK
5,"Torsgatan 26, 113 21 Stockholm, Sweden",59.3366426,18.046789,ROOFTOP,ChIJ7fKslmSdX0YR0Q16gOJMuSg,street_address,113 21,"Torsgatan 26, 113 21 Stockholm, Sweden",1,OK
6,"18100 Von Karman Ave Ste 100, Irvine, CA 92612, USA",33.6776789,-117.8506491,ROOFTOP,ChIJ__8_aYze3IARdIgd92o-Cy4,subpremise,92612,"18100 Von Karman Ave, Ste 100, Irvine, California 92612, US",1,OK
7,"203 Crescent St, Waltham, MA 02453, USA",42.36724940000001,-71.2431812,ROOFTOP,ChIJ3cHbACGD44kRyESg3Cf1kpg,subpremise,02453,"203 Crescent St, Waltham, Massachusetts 02453, US",1,OK
8,"1155 Perimeter Center W, Atlanta, GA 30338, USA",33.9298601,-84.35050780000002,ROOFTOP,ChIJZw6telQJ9YgRK4T1CbIQi3g,premise,30338,"1155 Perimeter Center W, Sandy Springs, Georgia 30338, US",1,OK
9,"498 7th Ave, New York, NY 10018, USA",40.7527456,-73.9897297,ROOFTOP,ChIJSwXEcaxZwokRGK4-v2pLtN0,street_address,10018,"498 7th Avenue, New York, NY 10018, US",1,OK
10,"11550 Mexico City, CDMX, Mexico",19.4318149,-99.19405859999999,APPROXIMATE,ChIJ-WLFWgIC0oUR0BPHe2EVjEU,postal_code,11550,"Miguel Hidalgo, Mexico City 11550, MX",1,OK
11,"154 Grand St, New York, NY 10013, USA",40.7202344,-73.9986357,ROOFTOP,ChIJTcF8p4lZwokReT692NDdvXo,premise,10013,"154 Grand Street, New York, New York, 10013, United States",1,OK
12,"6736 Tilghman St, Allentown, PA 18106, USA",40.587302,-75.60498659999999,ROOFTOP,ChIJXVNsP24xxIkRkK-_3y1vAwo,premise,18106,"6736 Tilghman Street, Allentown, PA 18106",1,OK
13,"900 Terminal Rd, Fort Worth, TX 76106, USA",32.8148113,-97.34498330000001,ROOFTOP,ChIJiQDYJAR3ToYRHFCKK_yBScA,street_address,76106,"900 Terminal Rd Dock Door 243, Ft Worth, TX 76106",1,OK
14,"1501 Haines St, Jacksonville, FL 32206, USA",30.3418492,-81.6360009,ROOFTOP,ChIJ92205s-25YgRTZ7n2tGbjOI,premise,32206,"1501 Haines St, Jacksonville, FL 32206",1,OK
15,"3195 E Washburn Rd #100, North Las Vegas, NV 89081, USA",36.2538685,-115.1051858,ROOFTOP,EjczMTk1IEUgV2FzaGJ1cm4gUmQgIzEwMCwgTm9ydGggTGFzIFZlZ2FzLCBOViA4OTA4MSwgVVNBIh8aHQoWChQKEgnFvb2Z6unIgBHsxnhGipODTRIDMTAw,subpremise,89081,"3195 E Washburn Rd, Unit 100, North Las Vegas, NV 89081",1,OK
16,"2507 S 300 W, South Salt Lake, UT 84115, USA",40.7169028,-111.8982196,GEOMETRIC_CENTER,ChIJXT4ZHNyKUocRMVn-GxE2AZA,premise,84115,"2507 S 300 W, Salt Lake City, UT 84115",1,OK
17,"5900 14th Ave, Markham, ON L3S 4K4, Canada",43.8546714,-79.26097229999999,ROOFTOP,ChIJw094EvbW1IkRfSF0byVJKyY,premise,L3S 4K4,"5900, 14th Avenue, Markham, ON L3S 4K4",1,OK
18,"50 Executive Pkwy, Hudson, OH 44236, USA",41.2555135,-81.4823051,ROOFTOP,ChIJxwvMBVAgMYgRsqWDo-wuA1k,premise,44236,"50 Executive Pkwy, Hudson, OH 44236, United States",1,OK
19,"Heinz-Nixdorf-Ring 1, 33106 Paderborn, Germany",51.7190886,8.7184817,ROOFTOP,ChIJAbmCgEJLukcRbAKVy9vLcsU,premise,33106,"Heinz-Nixdorf-Ring 1, 33106 Paderborn , Germany",1,OK
20,"overlook 3, 2859 Paces Ferry Rd SE #1800, Atlanta, GA 30339, USA",33.8688619,-84.4693563,ROOFTOP,EkBvdmVybG9vayAzLCAyODU5IFBhY2VzIEZlcnJ5IFJkIFNFICMxODAwLCBBdGxhbnRhLCBHQSAzMDMzOSwgVVNBIiAaHgoWChQKEgkDkkewaBD1iBGxB0EHCAodnhIEMTgwMA,subpremise,30339,"2859 Paces Ferry Rd SE, Suite 1800, Atlanta, GA 30339",1,OK
21,"Algiers [El Djazaïr], Algeria",36.753768,3.0587561,APPROXIMATE,ChIJn2Xqd2myjxIRSW-jOC0QMUI,"political,sublocality,sublocality_level_1",,"Rue B Section 21, Ilot 58, lot 94 local A, Hydra, 16035, Alger, Algeria",1,OK
22,"Building C/1 Homebush Bay Dr, Rhodes NSW 2138, Australia",-33.83400210000001,151.0871403,ROOFTOP,ChIJz0fz_EalEmsRHvQB0kS2x3g,street_address,2138,"Ground Floor, Building C, 1 Homebush Bay Drive, Rhodes NSW 2138",1,OK
23,"Modecenterstraße 17-19, 1110 Wien, Austria",48.1836837,16.4139026,ROOFTOP,ChIJaSyx-P2pbUcRGSu5cYez_Vs,subpremise,1110,"Modecenterstraße 17-19, 1110 Vienna",1,OK
24,"Brusselsesteenweg 494, 1731 Asse, Belgium",50.8901179,4.2610114,ROOFTOP,ChIJ4_qV5P7Aw0cRj3GsV6MB838,premise,1731,"Brusselsesteenweg 494, B-1731 Zellik, Belgium",1,OK
25,"Joseph Cardijnstraat 14, 9420 Erpe-Mere, Belgium",50.9339305,3.9620628,ROOFTOP,ChIJm_ZiI2Wiw0cR6b-yYqIhWrU,premise,9420,"J.Cardijnstraat, 14/16, B-9420 Erpe-Mere, Belgium",1,OK
26,"Av. Francisco Matarazzo, 1350 - Água Branca, São Paulo - SP, 05001-100, Brazil",-23.5258948,-46.6741803,ROOFTOP,ChIJN-ks9_5XzpQR8f3UyXTVvQI,street_address,05001-100,"1350 Francisco Matarazzo Avenue, São Paulo, SP, Zip Code: 05001-100, Brazil",1,OK
27,"300 Wellington St, London, ON N6B 2L5, Canada",42.981289,-81.2421598,ROOFTOP,ChIJqbK2aRryLogReI93SDpZLi0,premise,N6B 2L5,"300 Wellington St, London, ON N6B 2L5",1,OK
28,"6630 Campobello Rd, Mississauga, ON L5N 2L8, Canada",43.6068788,-79.73306459999999,ROOFTOP,ChIJrbGjwCVAK4gRHe8ftwEcFnI,premise,L5N 2L8,"6630 Campobello Road, Mississauga, ON L5N 2L8",1,OK
29,"Guang Zhong Xi Lu, Jing An Qu, China, 200072",31.27922,121.44861,GEOMETRIC_CENTER,EixHdWFuZyBaaG9uZyBYaSBMdSwgSmluZyBBbiBRdSwgQ2hpbmEsIDIwMDA3MiIuKiwKFAoSCftbr8QmbrI1EQrwajgdXNlQEhQKEgl7r-O68XGyNRG6skK_qbZqSw,route,200072,"10F, Huasting Building, No.88, Lane 777, West Guangzhong Road, Shanghai P.R., China 200072",1,OK
30,"Siemensova 2716/2, 155 00 Praha 13, Czechia",50.04817329999999,14.3063513,ROOFTOP,ChIJvXi6sgi-C0cRK8XoUCWtchQ,subpremise,155 00,"Siemensova 2, 155 00 Prague 13 - Stodulky, Czech Republic",1,OK
31,"Fabriksparken 20, 2600 Glostrup, Denmark",55.6860046,12.3894722,ROOFTOP,ChIJ8b7GgsBQUkYRhwM8QirLEi8,premise,2600,"Fabriksparken 20, 2600 Glostrup",1,OK
32,"Karakaari 5 Building 10, 02610 Espoo, Finland",60.2219575,24.7581448,ROOFTOP,Ei1LYXJha2FhcmkgNSBCdWlsZGluZyAxMCwgMDI2MTAgRXNwb28sIEZpbmxhbmQiJxolChYKFAoSCdXRjxQg9I1GEVrS7KtyEp6OEgtCdWlsZGluZyAxMA,subpremise,02610,"Building 10, Karakaari 5 E, 02610 Espoo, Finland",1,OK
33,"6 Av. Morane Saulnier, 78140 Vélizy-Villacoublay, France",48.781112,2.2111838,ROOFTOP,ChIJmzhEFNl75kcRR_BP72JxLl8,street_address,78140,"6, avenue Morane Saulnier, 78140 Vélizy Villacoublay, France",1,OK
34,"Wohlrabedamm 31, 13629 Berlin, Germany",52.5327067,13.2684454,ROOFTOP,ChIJ_wj9ZsZWqEcRxBs7NKU2CyY,street_address,13629,"Wohlrabedamm 31, 13629 Berlin",1,OK
35,"Kifisia, Greece",38.0868635,23.8003029,APPROXIMATE,ChIJi_32gR6foRQRlpfLA-6I2OA,"locality,political",,"14th km. Athens – Lamia Nat. Road, 14564 Kifissia, Athens, Greece",1,OK
36,"Ever Gain Plaza Tower 2, 88 Container Port Rd, Kwai Chung, Hong Kong",22.3530995,114.1245663,ROOFTOP,ChIJ08StErn4AzQR6P1HD3jpfn4,premise,,"Units 2506-08, 25/F., Tower 2, Ever Gain Plaza, 88 Container Port Road, Kwai Chung, New Territories, Hong Kong",1,OK
37,"Vecsés, Lőrinci u. 59-61, 2220 Hungary",47.41644530000001,19.2418639,ROOFTOP,ChIJqYrsLY3BQUcRY_QkfFw5gaM,"establishment,point_of_interest,storage",2220,"H-2220 Vecsés, JT ROSS PARK/AEROZONE, L?rinci út 59, Building C3",1,OK
38,"Plot No. 17 Gate No.5, Software Units Layout, Madhapur, Telangana 500081, India",17.4350222,78.3840396,GEOMETRIC_CENTER,ChIJ6U8bC1iRyzsRq0tMYJgzRYY,"establishment,point_of_interest",500081,"The V-Ascendas IT Park,
Plot No 17, Software Units Layout, Madhapur, Hyderabad- 500081",2,OK
39,"Romell Tech Park, Cama Industrial Estate, Goregaon, Mumbai, Maharashtra 400063, India",19.1557891,72.85533269999999,ROOFTOP,ChIJd3-SWrS35zsRrgmhzCV0K9Y,premise,400063,"9th Floor, Goregaon East, Romell Tech Park, Mumbai – 400093",1,OK
40,"Jl. H. R. Rasuna Said No.101, RW.4, Kuningan Tim., Kecamatan Setiabudi, Kota Jakarta Selatan, Daerah Khusus Ibukota Jakarta 12950, Indonesia",-6.2324044,106.8324008,RANGE_INTERPOLATED,EowBSmwuIEguIFIuIFJhc3VuYSBTYWlkIE5vLjEwMSwgUlcuNCwgS3VuaW5nYW4gVGltLiwgS2VjYW1hdGFuIFNldGlhYnVkaSwgS290YSBKYWthcnRhIFNlbGF0YW4sIERhZXJhaCBLaHVzdXMgSWJ1a290YSBKYWthcnRhIDEyOTUwLCBJbmRvbmVzaWEiMBIuChQKEgmNqy--6PNpLhFbxlQRdjPkZxBlKhQKEgmDZ4H_-fNpLhEBYDXXe88h6A,street_address,12950,"Plaza 89 Building, Ground Floor, Suite 101, Jalan HR Rasuna Said, Kav. X-7 No.6, Jakarta 12940",3,OK
41,"Property District, 3013, 24 Lake Dr, Citywest Business Campus, Dublin, Ireland",53.2906687,-6.4225307,ROOFTOP,ChIJT2wLtYl0Z0gRKnN102tAMBw,subpremise,,"3022 Lake Drive, City West Business Campus, Dublin 24, Ireland",2,OK
42,"Via Ludovico il Moro, 6/B, Palazzo, 20080 Basiglio MI, Italy",45.3549261,9.151528899999999,ROOFTOP,EjxWaWEgTHVkb3ZpY28gaWwgTW9ybywgNi9CLCBQYWxhenpvLCAyMDA4MCBCYXNpZ2xpbyBNSSwgSXRhbHkiJhokChYKFAoSCf8T-gt924ZHEcCeR0PnZ633EgpCLCBQYWxhenpv,subpremise,20080,"Via Ludovico il Moro 6/B, Palazzo Torricelli, 20080 Basiglio Milano",1,OK
43,"43 Zone Op Zaemer 45, 4959 Käerjeng, Luxembourg",49.561163,5.928163899999999,ROOFTOP,EjA0MyBab25lIE9wIFphZW1lciA0NSwgNDk1OSBLw6RlcmplbmcsIEx1eGVtYm91cmciHhocChYKFAoSCc9T7MEStepHEYkAafnt0jaVEgI0NQ,subpremise,4959,"Z.A. Op Zaemer 43-45, L-4959 Bascharage, Luxembourg",1,OK
44,"Level 10, Block K, Soho KL, 2, Jalan Solaris, Solaris Mont Kiara, 50480 Kuala Lumpur, Wilayah Persekutuan Kuala Lumpur, Malaysia",3.1751772,101.6603153,ROOFTOP,EoABTGV2ZWwgMTAsIEJsb2NrIEssIFNvaG8gS0wsIDIsIEphbGFuIFNvbGFyaXMsIFNvbGFyaXMgTW9udCBLaWFyYSwgNTA0ODAgS3VhbGEgTHVtcHVyLCBXaWxheWFoIFBlcnNla3V0dWFuIEt1YWxhIEx1bXB1ciwgTWFsYXlzaWEiLRorChYKFAoSCRP-j2yKSMwxETQ5Nt25onp6EhFMZXZlbCAxMCwgQmxvY2sgSw,subpremise,50480,"Level 10, Block K Solaris Mont Kiara, No 2 Jalan Solaris, 50480 Kuala Lumpur, Malaysia",1,OK
45,"Av. Paseo de la Reforma 296, Juárez, Cuauhtémoc, 11000 Ciudad de México, CDMX, Mexico",19.4273871,-99.1652376,ROOFTOP,ChIJ1S1xyjX_0YURD70p6iy3ajo,premise,11000,"Av. Paseo de la Reforma 296, Juárez, Cuauhtémoc, 06600 Ciudad de Mexico, CDMX",1,OK
46,"Blvd. Bernardo Quintana, Santiago de Querétaro, Qro., Mexico",20.6200893,-100.4135886,GEOMETRIC_CENTER,Ej1CbHZkLiBCZXJuYXJkbyBRdWludGFuYSwgU2FudGlhZ28gZGUgUXVlcsOpdGFybywgUXJvLiwgTWV4aWNvIi4qLAoUChIJi6qwFTZb04UR-xIaMUs3LPUSFAoSCVWSW9yPW9OFES-DG1aqlLCX,route,,"Prolongacion Boulevard, Bernardo Quintana Sur N0. 302 Manzana, Queretaro, Mexico",1,OK
47,"Casablanca 20000, Morocco",33.5938091,-7.631983200000001,APPROXIMATE,ChIJjXbCvJLSpw0RPRQiX1LbLAE,postal_code,20000,"Rez de chaussée, Imm Tour Ouest Anfa place, 20000 Casablanca, Morocco",2,OK
48,"5th Street, Yangon, Myanmar (Burma)",16.7764685,96.1399159,GEOMETRIC_CENTER,ChIJt4cpr3frwTARysVNFw0ga5g,route,,"Unit F, MIMOSA Building Ground Floor, 196A, West Shwe Gone Taine 5th Street, Bahan Township, Yangon, Myanmar.",4,OK
49,"Papendorpseweg 100, 3528 BJ Utrecht, Netherlands",52.0656429,5.0906651,ROOFTOP,ChIJ0yam95llxkcRJWBr1iTC7Es,premise,3528 BJ,"Papendorpseweg 100, 3528 BJ Utrecht, The Netherlands",1,OK
50,"Innspurten 1a, 0663 Oslo, Norway",59.9151867,10.8015157,ROOFTOP,ChIJnbNlv6xvQUYRwXCbUJXA1nw,street_address,0663,"Innspurten 1A, 0663 OSLO, PO box: Postboks 6734 Etterstad, 0609 Oslo",1,OK
51,"33f, Rufino Tower, Ayala Ave, Makati, Metro Manila, Philippines",14.559192,121.0175157,ROOFTOP,Ej8zM2YsIFJ1ZmlubyBUb3dlciwgQXlhbGEgQXZlLCBNYWthdGksIE1ldHJvIE1hbmlsYSwgUGhpbGlwcGluZXMiHxodChYKFAoSCXPaEUkJyZczEU5go1wA9TwiEgMzM2Y,subpremise,,"33F Rufino Towers, 6784 Ayala Avenue Corner, Rufino Street, Makati City 1226",3,OK
52,"Gawronów 4, 40-527 Katowice, Poland",50.2369529,19.0038811,ROOFTOP,ChIJ5fPRaVjOFkcRFmEMimNPPzE,premise,40-527,"Brynów Center, ul. Gawronów 4, 40-527 Katowice",1,OK
53,"al. Jerozolimskie 142A, 02-305 Warszawa, Poland",52.2188385,20.9666223,ROOFTOP,ChIJ8dizxqDMHkcRUzplLCMDXyo,"establishment,point_of_interest",02-305,"West Station II, Al. Jerozolimskie 142B, 02-305 Warszawa",1,OK
54,"R. de Nossa Sra. da Conceição 5, 2790-485 Carnaxide, Portugal",38.7212813,-9.232548,ROOFTOP,ChIJF23xi4nMHg0RPcqgFH9DlME,street_address,2790-485,"Rua Nossa Senhora da, Conceição, 5, 2794-086 Carnaxide, Portugal",1,OK
55,"7th floor, Strada Delea Veche 24, București 030167, Romania",44.4336995,26.1274736,ROOFTOP,Ejw3dGggZmxvb3IsIFN0cmFkYSBEZWxlYSBWZWNoZSAyNCwgQnVjdXJlyJl0aSAwMzAxNjcsIFJvbWFuaWEiJRojChYKFAoSCWez5I8o_7FAEWMdW9U3BQPzEgk3dGggZmxvb3I,subpremise,030167,"24 Delea Veche Str, Building A, 7th floor, Bucharest 2, Romania",2,OK
56,,,,,,,,"30A Kallang Place #04-01, Singapore 339213",0,REQUEST_DENIED
57,"Mokráň záhon 4, 821 04 Bratislava-Ružinov, Slovakia",48.1732291,17.1847344,ROOFTOP,ChIJcXJ6fBePbEcRpb8RjlnCSOg,street_address,821 04,"Mokrá? záhon 4, 821 04 Bratislava, Slovenská republika",1,OK
58,"Moldavská cesta 1629/8, 040 11 Košice, Slovakia",48.7068553,21.2460212,ROOFTOP,ChIJQ-eqOxLgPkcRHA9NRCMtYq8,street_address,040 11,"Moldavská cesta 8/B, Košice 04011, Slovenská republika",1,OK
59,"Radel Pty Ltd, Meadowbrook business estate, Jacaranda Ave, Olivedale, Randburg, 2188, South Africa",-26.0615285,27.9742488,GEOMETRIC_CENTER,ChIJ5WM_DjV0lR4RnhEZSSDwZ-A,"establishment,point_of_interest",2188,"Meadowbrook Business Estate, 972 Jacaranda Avenue, Olivedale Extension 18",1,OK
60,"Av. de Manoteras, 6, 28050 Madrid, Spain",40.4875267,-3.6711576,ROOFTOP,ChIJvQOBYFApQg0RnWBk8zMY3T4,premise,28050,"Avenida de Manoteras, 6, Building: Cetil II, 28050 – Madrid",1,OK
61,"Hemvärnsgatan 8, 74, 171 54 Solna, Sweden",59.3542667,17.9754871,ROOFTOP,EipIZW12w6RybnNnYXRhbiA4LCA3NCwgMTcxIDU0IFNvbG5hLCBTd2VkZW4iHhocChYKFAoSCXk0w4LvnV9GEeaEesisXOClEgI3NA,subpremise,171 54,"Hemvärnsgatan 8, SE-171 74 Solna",1,OK
62,"Stationsstrasse 5, 8306 Wangen-Brüttisellen, Switzerland",47.4194216,8.6300286,ROOFTOP,ChIJUftMqeqhmkcRbfJyarJLjFg,premise,8306,"Stationsstrasse 5, 8306 Brüttisellen",1,OK
63,"6F, No, No. 12, Wenhu St, Neihu District, Taipei City, Taiwan 114",25.0856945,121.5609076,ROOFTOP,ChIJ4SfVXmusQjQRHJqyz42Q4uU,subpremise,114,"6F, No. 12, WenHu St., Neihu District, Taipei City 114, Taiwan",1,OK
64,"4 Thanon Chaeng Watthana, Tambon Pak Kret, Amphoe Pak Kret, Chang Wat Nonthaburi 11120, Thailand",13.9104279,100.4986804,ROOFTOP,ChIJb-yzqvGE4jARHCDAmp6kIAY,street_address,11120,"47/304 Muangthong Thani, Kaituk Building, Floor 4, Chaengwattana Road, Banmai, Nonthaburi 11120",2,OK
65,"Barbaros, Sütçü Yolu Cd. No:62, 34746 Ataşehir/İstanbul, Turkey",40.987199,29.0948418,ROOFTOP,ChIJrTO9BTPGyhQR-xjqSsbR98U,street_address,34746,"Yenisahra Mah. Sütçü Yolu Cad. No: 62, ?ç Kap? No: 2 Ata?ehir/?stanbul",1,OK
66,"Kyiv, Ukraine, 02000",50.4501,30.5234,APPROXIMATE,ChIJBUVa4U7P1EAR_kYBF9IxSXY,"locality,political",02000,"Degtyarovskaya Str. 27T, 3rd floor, BC “Micom Palace”, 04119, Kiev",1,OK
67,Al Sufouh - Dubai Internet City - Dubai - United Arab Emirates,25.0976119,55.163109,APPROXIMATE,ChIJTUPxFWlrXz4RHmXjbuqYYTE,"neighborhood,political",,"Dubai Internet City, Building N16, Floor 1, Premises: 129",2,OK
68,"Cain Rd, Binfield, Bracknell RG12 1WP, UK",51.4146822,-0.7786542,GEOMETRIC_CENTER,EilDYWluIFJkLCBCaW5maWVsZCwgQnJhY2tuZWxsIFJHMTIgMVdQLCBVSyIuKiwKFAoSCW-JTqPHgHZIEX37fViXeTCoEhQKEglh4CUEuIB2SBEco-hSobqw5Q,route,RG12 1WP,"One, The Boulevard, Cain Road, Bracknell/Berkshire RG12 1WP",2,OK
69,"Anchor Blvd, Dartford DA2 6QH, UK",51.4548428,0.2522351,GEOMETRIC_CENTER,EiFBbmNob3IgQmx2ZCwgRGFydGZvcmQgREEyIDZRSCwgVUsiLiosChQKEgnpJPyEE7HYRxHDxxv4AxR45xIUChIJ13kheBOx2EcRD9teMg7gwuM,route,DA2 6QH,"Radius House, Anchor Boulevard, Crossways Business Park, Dartford, DA2 6QH",1,OK
70,"3rd Floor, 19 Eastbourne Terrace, London W2 6LG, UK",51.5170355,-0.179513,ROOFTOP,EjMzcmQgRmxvb3IsIDE5IEVhc3Rib3VybmUgVGVycmFjZSwgTG9uZG9uIFcyIDZMRywgVUsiJRojChYKFAoSCbkOZ_ysGnZIERbP1Jy_bUelEgkzcmQgRmxvb3I,subpremise,W2 6LG,"19 Eastbourne Terrace 3rd Floor, London, W2 6LG",1,OK
71,"117 Đ. Trần Duy Hưng, Trung Hoà, Cầu Giấy, Hà Nội, Vietnam",21.0078287,105.7973336,ROOFTOP,ChIJiRQ3AU6tNTEREwOaRQG_F8s,"establishment,point_of_interest,real_estate_agency",,"Room No. 6, 21st Floor, Charmvit Tower, 117 Tran Duy Hung Street, Hanoi, 10000",1,OK
72,"120 NW 25th St, Miami, FL 33127, USA",25.8005921,-80.1974881,ROOFTOP,ChIJYy74mK222YgRK8gylH_WXrk,street_address,33127,"120 NW 25th St., Miami, FL 33127, US",1,OK
73,"135 Stillman St, San Francisco, CA 94107, USA",37.7810069,-122.3970747,ROOFTOP,ChIJ8QU_In-AhYARikT5wd8n37I,premise,94107,"135 Stillman St, San Francisco, CA 94107 USA",1,OK
74,"4131 N Central Expy # 750, Dallas, TX 75204, USA",32.8148447,-96.790631,ROOFTOP,ChIJ-cU5aiifToYRCdw2zqlrhCk,subpremise,75204,"4131 N Central Expressway, Suite 750, Dallas, TX 75204",1,OK
75,"Spicalaan 43, 2132 JG Hoofddorp, Netherlands",52.2912544,4.7075676,ROOFTOP,ChIJX6OwDA3nxUcRbRanuqK4mts,street_address,2132 JG,"Spicalaan 43, 2132 JG Hoofddorp",1,OK
76,"De-Saint-Exupéry-Straße 10, 60549 Frankfurt am Main, Germany",50.0547845,8.596012499999999,ROOFTOP,ChIJLRFN6eEKvUcRKdl8wUfXXQE,street_address,60549,"De-Saint-Exupery-Strasse 10, 60549 Frankfurt am Main",1,OK
77,"5909 Sea Otter Pl #200, Carlsbad, CA 92010, USA",33.1343613,-117.2521307,ROOFTOP,Ei81OTA5IFNlYSBPdHRlciBQbCAjMjAwLCBDYXJsc2JhZCwgQ0EgOTIwMTAsIFVTQSIfGh0KFgoUChIJLfbFaG913IAR5NQR0lhTpWcSAzIwMA,subpremise,92010,"5909 Sea Otter Place, Suite 200, Carlsbad, CA 92010",1,OK
78,"R. Frei Caneca, 1246 - 13º andar - Consolação, São Paulo - SP, 01307-002, Brazil",-23.5573844,-46.6578674,ROOFTOP,ChIJoZE03cxZzpQR0txXfQs2p6Y,subpremise,01307-002,"Rua Frei Caneca 1246, 13º, São Paulo, São Paulo 01307-002, BR",1,OK
79,"200 S Wacker Dr #3100A, Chicago, IL 60606, USA",41.87891870000001,-87.637233,ROOFTOP,ChIJOwDAbL8sDogRJa5gG0cy-B4,subpremise,60606,"200 S Wacker Drive, Suite 3100, Chicago, IL 60606",1,OK
80,"Schellingstraße 35, 80799 München, Germany",48.1505277,11.5746764,ROOFTOP,ChIJbcvl5Ot1nkcRgSJEyh-SzR4,street_address,80799,"Schellingstraße 35, 80799 Munich",1,OK
81,"2 Mint Plaza APT 1003, San Francisco, CA 94103, USA",37.7831725,-122.407689,ROOFTOP,ChIJeXCM0YWAhYARd5pAmblxiRM,subpremise,94103,"2 Mint Plaza Suite 1003 San Francisco, CA 94110 United States",1,OK
82,"Richmond, VA 23294, USA",37.6284406,-77.5447454,APPROXIMATE,ChIJoy-nJTwVsYkRXsFr41dI58E,postal_code,23294,"Richmond, Virginia 23294, US",1,OK
83,"1 Bluxome St, San Francisco, CA 94107, USA",37.77743600000001,-122.3958189,ROOFTOP,ChIJkVUdf9Z_j4ARx8JUKwAaDNE,street_address,94107,"1 Bluxome St., San Francisco, CA 94107, US",1,OK
84,"321 North Clark, 321 N Clark St, Chicago, IL 60654, USA",41.8882322,-87.630592,ROOFTOP,ChIJid3IrrEsDogRms7968jVs1Y,premise,60654,"321 N Clark, Chicago, IL 60654, US",1,OK
85,"1a Garforth Pl, Knowlhill, Milton Keynes MK5 8PG, UK",52.0238954,-0.7667967,ROOFTOP,ChIJkVGb0Kuqd0gRgmgNwiubWYM,street_address,MK5 8PG,"1a Garforth Place, Crossland House, Milton Keynes, Buckinghamshire MK5 8PG, GB",1,OK
86,"2110 Austin Ave, Rochester Hills, MI 48309, USA",42.6399152,-83.1726881,ROOFTOP,ChIJp9xR3ozBJIgRX5Udjb72NlU,premise,48309,"2110 Austin Ave, Rochester, Michigan 48309, US",1,OK
87,"444 Castro St, Mountain View, CA 94041, USA",37.39074610000001,-122.0817109,ROOFTOP,ChIJ9aWJEjO3j4AR2lUly74pi6s,premise,94041,"444 Castro St, Mountain View, California, US",1,OK
88,"Córdoba 49, Roma Nte., Cuauhtémoc, 06700 Ciudad de México, CDMX, Mexico",19.421939,-99.1595614,ROOFTOP,ChIJZ2LBijD_0YURROt0qHIGhO8,premise,06700,"Córdoba 49, Ciudad de México, Cuauhtémoc 06700, MX",1,OK
89,"Av. Alfredo Benavides 1944, Miraflores 15048, Peru",-12.1273816,-77.01215959999999,ROOFTOP,ChIJPy1cQwDIBZERtjAW_0noMzQ,subpremise,15048,"1944 Avenida Alfredo Benavides, Miraflores, Lima 15048, PE",1,OK
90,"Holanda 100, Oficina 606, Providencia, Región Metropolitana, Chile",-33.4200596,-70.6035898,ROOFTOP,ChIJiwlj12vPYpYREZUhpFpQtY8,subpremise,,"Avenida Holanda 100, Oficina 606, Providencia, Región Metropolitana de Santiago 7510021, CL",1,OK
91,"Roque Graseras 694, 11300 Montevideo, Departamento de Montevideo, Uruguay",-34.918954,-56.15178,ROOFTOP,ChIJ-6LOanGBn5URyb3Pwon2uSU,street_address,11300,"Roque Graseras 694, Montevideo, Montevideo, UY",1,OK
92,"18200 Cascade Ave S, Seattle, WA 98188, USA",47.4378249,-122.2481193,ROOFTOP,ChIJE_Tks-5ckFQRqo_l87d0G5M,premise,98188,"18200 Cascade Avenue S. Seattle, WA 98188",1,OK
93,"475 Horizon Dr, Suwanee, GA 30024, USA",34.0396845,-84.0311165,ROOFTOP,ChIJf-2TGm-W9YgRUCpWCycTYRI,premise,30024,"475 Horizon Drive, Suwanee, GA 30024",1,OK
94,"821 2nd Ave STE 500, Seattle, WA 98104, USA",47.6042042,-122.3345827,ROOFTOP,ChIJe7xIRbBqkFQRCej6hgpc4dY,subpremise,98104,"821 2nd Avenue, Seattle, WA 98104 suite 500",1,OK
95,"15950 N 76th St, Scottsdale, AZ 85260, USA",33.6306688,-111.9173163,ROOFTOP,ChIJT-s0jjp0K4cRZeX0xSRtAos,premise,85260,"15950 N 76th St, Scottsdale, Arizona 85260, US",1,OK
96,"1160 Battery St Suite #100, San Francisco, CA 94111, USA",37.801753,-122.4014755,ROOFTOP,ChIJWXwcAvaAhYARZfepscQkWyk,subpremise,94111,"1160 Battery Street, East Suite 100, San Francisco, California 94111",1,OK
97,"4 Armstrong Rd Suite 210, Shelton, CT 06484, USA",41.2719463,-73.13199949999999,ROOFTOP,ChIJO6Gp-PYK6IkRzBm4M1k6fJs,subpremise,06484,"4 Armstrong Road, Suite 210, Shelton, CT 06484",1,OK
98,"2A Charing Cross Rd, London WC2H 0HF, UK",51.50975,-0.1276111,ROOFTOP,ChIJ7ZY0580EdkgRsMwTNjcg9nE,street_address,WC2H 0HF,"2a Charing Cross Rd, Charing Cross, London WC2H 0HF, United Kingdom",1,OK
99,"175 Varick St Suite 529, New York, NY 10014, USA",40.7274061,-74.00605,ROOFTOP,ChIJq6pqNo1ZwokRmXuHssnt-_g,subpremise,10014,"175 Varick Street, Suite 529, New York, NY 10014",1,OK
100,"Usaquén, Bogotá, Bogota, Colombia",4.6904549,-74.0241367,APPROXIMATE,ChIJM7sAWXWQP44R-bhnlv1EnuU,postal_code,110111,"Bogotá, Cundinamarca 110111, CO",2,OK
101,"Köpenicker Str. 125, 10179 Berlin, Germany",52.5091264,13.4228978,ROOFTOP,ChIJd09RDjpOqEcR1jibwxUOd18,premise,10179,"Köpenicker Straße 125, Berlin, BE 10179, DE",1,OK
102,"36 Gloucester Ave, London NW1 7BB, UK",51.5394336,-0.1495082,ROOFTOP,ChIJUa868eYadkgRsg_-khz8e5w,premise,NW1 7BB,"36 Gloucester Ave, London NW1 7BB, UK",1,OK
103,"3 Rue Galvani, 91300 Massy, France",48.7224525,2.2722045,ROOFTOP,ChIJ6TwGrY535kcRjSs3Am-IsNc,premise,91300,"3, Rue Galvani, Massy, Île-de-France 91300, FR",1,OK
104,"13 Port Saint-Étienne, 31000 Toulouse, France",43.60020859999999,1.4556658,ROOFTOP,ChIJ7QmvzZG8rhIRmi8VC6Lm8Rk,premise,31000,"13, Port Saint-Étienne, Toulouse, Occitanie 31000, FR",1,OK
105,"176 Lfi Complex Ln, Lexington, NC 27295, USA",35.8007008,-80.28282879999999,ROOFTOP,ChIJk3kzKFyXU4gRDa-5Il4ijEM,premise,27295,"176 LFI Complex Lane Lexington NC, 27295",1,OK
106,"1000 Jefferson Ave a, Elizabeth, NJ 07201, USA",40.6851354,-74.20126119999999,ROOFTOP,Ei4xMDAwIEplZmZlcnNvbiBBdmUgYSwgRWxpemFiZXRoLCBOSiAwNzIwMSwgVVNBIh0aGwoWChQKEgkLiETBuFLCiRG54Ieqy6oaFBIBYQ,subpremise,07201,"1000 Jefferson ave. STE A Elizabeth, NJ 07201",1,OK
107,"5215 Westgate Dr c, Atlanta, GA 30336, USA",33.7415233,-84.5577615,ROOFTOP,Eio1MjE1IFdlc3RnYXRlIERyIGMsIEF0bGFudGEsIEdBIDMwMzM2LCBVU0EiHRobChYKFAoSCVcAuCPnHvWIET7A-jneAJZbEgFj,subpremise,30336,"5215 Westgate Drive, Suite C. Atlanta, GA 30336",1,OK
108,"1214 Dorris Ave, High Point, NC 27260, USA",35.9361424,-80.0161564,ROOFTOP,ChIJxf8F9lYJU4gR1GYnxuqoEyQ,premise,27260,"1214 Dorris Avenue High Point, NC 27260",1,OK
109,"1010 Crews Commerce Dr, Orlando, FL 32837, USA",28.423616,-81.4017708,RANGE_INTERPOLATED,Ei4xMDEwIENyZXdzIENvbW1lcmNlIERyLCBPcmxhbmRvLCBGTCAzMjgzNywgVVNBIjESLwoUChIJ9ZUChpV954gRDu7Go_d10owQ8gcqFAoSCc1o5ZmVfeeIEUG4cVqUJqTe,street_address,32837,"1010 Crews Commerce Dr, Suite 120 - Receiving Docks 197-200 Orlando, FL 32837",1,OK
110,"3241 S Denver Way, Boise, ID 83705, USA",43.5731099,-116.1966733,ROOFTOP,ChIJYXITSBv4rlQRVBdMHyyOYbw,street_address,83705,"3241 South Denver Way Boise , ID 83705",1,OK
111,"8675 Rochester Ave, Rancho Cucamonga, CA 91730, USA",34.0961116,-117.5450902,ROOFTOP,ChIJP-4HSgtKw4ARP9vj4V7pCp0,premise,91730,"8675 Rochester Ave. Rancho Cucamonga, CA 91730",1,OK
112,"1 Harkness Blvd Suite 400, Fredericksburg, VA 22401, USA",38.2857417,-77.47361320000002,ROOFTOP,ChIJuVQI_YjBtokRGCedo-5ya34,subpremise,22401,"1 Harkness Boulevard, Suite 400 Fredericksburg, VA 22401",1,OK
113,"601a W Campus Dr, Arlington Heights, IL 60004, USA",42.1340406,-87.99150350000001,ROOFTOP,ChIJ____RGe7D4gRsHJTQS-AQi4,street_address,60004,"601A W. Campus Drive Arlington Heights, IL 60004",1,OK
114,"9500 W Sam Houston Pkwy S #200, Houston, TX 77099, USA",29.6764508,-95.56205609999999,ROOFTOP,ChIJq6qqzlTdQIYRRGugHW-cs7k,subpremise,77099,"9500 W Sam Houston Pkwy S, Ste 200 Houston, TX 77099",1,OK
115,"12591 Perimeter Dr, Dallas, TX 75228, USA",32.8621204,-96.6636346,ROOFTOP,ChIJTepdqtSgToYRFJlH1y0EOmA,street_address,75228,"12591 Perimeter Drive Dallas, TX 75228",1,OK
116,"725 Main St #2, Millis, MA 02054, USA",42.1710509,-71.352757,ROOFTOP,EiU3MjUgTWFpbiBTdCAjMiwgTWlsbGlzLCBNQSAwMjA1NCwgVVNBIh0aGwoWChQKEgmPQpH-WXvkiRFpBG-fYQueXBIBMg,subpremise,02054,"725 Main Street, Suite 2 Millis, MA 02054",1,OK
117,"807 5th Ave N, Birmingham, AL 35203, USA",33.5100579,-86.8242234,ROOFTOP,ChIJLRW6KXUciYgRH3pEEJPq1YU,street_address,35203,"807 5th Avenue North Birmingham, AL 35203",1,OK
118,"1519 St Paul Ave, Tacoma, WA 98421, USA",47.2516817,-122.4211778,ROOFTOP,ChIJk-BSFppVkFQRDtejYsnqWmY,premise,98421,"1519 Saint Paul Avenue, Tacoma, WA 98421",1,OK
119,"730 N 2800 W, Lindon, UT 84042, USA",40.35046759999999,-111.7734834,ROOFTOP,ChIJi_m8WO2DTYcRwaFBeWCZfhc,premise,84042,730 N. 2800 W. Lindon Utah 84042,1,OK
120,"960 W Broadway, Jackson, WY 83001, USA",43.4728143,-110.7838139,ROOFTOP,ChIJZVKVR3YaU1MRe5k9lgIccSE,premise,83001,"960 West Broadway Jackson, WY 83001",1,OK
121,"2230 W Winton Ave, Hayward, CA 94545, USA",37.6523352,-122.1356548,ROOFTOP,ChIJQWvtx-aQj4ARVY1mWOo-XFE,street_address,94545,"2230 W Winton Ave Hayward, CA 94545",1,OK
122,"6412 Deere Rd Suite 3, Syracuse, NY 13206, USA",43.0862952,-76.1017121,ROOFTOP,ChIJJQ4Gi6Ty2YkRkr8KVrRQbpg,subpremise,13206,"6412 Deere Road, Suite 3 Syracuse, NY 13206",1,OK
123,"5107 NE 158th Ave, Portland, OR 97230, USA",45.5602056,-122.500746,ROOFTOP,ChIJtSXJh6CjlVQRTTrrt1cDyco,street_address,97230,"5107 NE 158th AVE Portland, OR 97230",1,OK
124,"9261 Cody St, Overland Park, KS 66214, USA",38.9614403,-94.7207201,ROOFTOP,ChIJhYkc6E7rwIcRE2tmvtL0FiY,subpremise,66214,"9261 Cody Street Overland Park, KS 66214",1,OK
125,"6260 Washington St #1, Denver, CO 80216, USA",39.8114694,-104.9765902,ROOFTOP,ChIJpwZHStB5bIcRa3t5MArJotY,subpremise,80216,"?6260 Washington Street Unit 1 Denver, CO 80216",1,OK
126,"131 S 57th Dr, Phoenix, AZ 85043, USA",33.4462917,-112.1826077,ROOFTOP,ChIJ2_41uEkUK4cRYm2P1yr0JQw,street_address,85043,"131 South 57th Drive Phoenix, AZ 85043",1,OK
127,"7900 S Kolb Rd, Tucson, AZ 85756, USA",32.11026,-110.8439763,ROOFTOP,ChIJB6QkGoZj1oYR0jgeEOL8o48,premise,85756,"7900 South Kolb Road Tucson, AZ 85756",1,OK
128,"1201 Sentry Dr, Waukesha, WI 53186, USA",42.99088039999999,-88.24909,ROOFTOP,ChIJifxEcOGlBYgRvUlDSMdDTC8,premise,53186,"1201 Sentry Drive Waukesha, WI 53186",1,OK
129,"8460 Bearing Dr Suite 400, Indianapolis, IN 46268, USA",39.90908599999999,-86.2373582,ROOFTOP,ChIJK3A-6kdVa4gRMMi1SqHMV00,subpremise,46268,"8460 Bearing Drive, Ste. 400 Indianapolis, IN 46268",1,OK
130,"720 Prior Ave N, St Paul, MN 55104, USA",44.9625891,-93.1814625,ROOFTOP,ChIJPe0PAakss1IRbqhuc0XS0HQ,premise,55104,"720 Prior Avenue North Saint Paul, MN 55104",1,OK
131,"4510 F St, Omaha, NE 68117, USA",41.22054929999999,-95.98112839999999,ROOFTOP,ChIJraOmL6eOk4cR1W095dDCxKo,street_address,68117,"4510 F Street Omaha, NE 68117",1,OK
132,"8040 Centrepointe Dr, La Vergne, TN 37086, USA",35.9989587,-86.6129859,RANGE_INTERPOLATED,Ei44MDQwIENlbnRyZXBvaW50ZSBEciwgTGEgVmVyZ25lLCBUTiAzNzA4NiwgVVNBIjESLwoUChIJma66xwJzZIgRuetRl5hp-q0Q6D4qFAoSCduKbMIec2SIEZ3L58REJxWA,street_address,37086,"8040 Centrepointe Drive La Vergne , TN 37086",1,OK
133,"7512 Jamison Rd, Little Rock, AR 72209, USA",34.6792531,-92.3133848,ROOFTOP,ChIJKadK6kWl0ocRmNXyitGn-vM,street_address,72209,"7512 Jamison Rd, Little Rock, AR 72209",1,OK
134,"4683 50th St SE b, Kentwood, MI 49512, USA",42.87411850000001,-85.5491297,ROOFTOP,Eio0NjgzIDUwdGggU3QgU0UgYiwgS2VudHdvb2QsIE1JIDQ5NTEyLCBVU0EiHRobChYKFAoSCREjpT5oTBiIEdAbqmJ4GOGIEgFi,subpremise,49512,4683 50th Street Suite B Grand Rapids MI 49512,1,OK
135,"2660 Fisher Rd # C, Columbus, OH 43204, USA",39.9796732,-83.0770131,ROOFTOP,ChIJGY2z0iqOOIgR7U5cEYCqDkY,subpremise,43204,"2660 Fisher Rd. Ste. C Columbus, OH 43204",1,OK
136,"1515 Drew Rd, Mississauga, ON L5S 1Y8, Canada",43.6823756,-79.6826598,ROOFTOP,ChIJkSnZ6e0-K4gRTyrolQbTkUQ,premise,L5S 1Y8,"1515 Drew Road, Mississauga, ON L5S 1Y8",1,OK
137,"325 W Silverbell Rd Suite 220, Lake Orion, MI 48359, USA",42.7185076,-83.2510348,ROOFTOP,ChIJiRg-qcyUJIgRvFZ7dBZ_MqE,subpremise,48359,"325 West Silverbell Road, Suite 220, Lake Orion , MI 48359",1,OK
138,"1728 US-30, Clinton, PA 15026, USA",40.4916244,-80.3328725,ROOFTOP,ChIJVxXPjpdDNIgRCnDPuMJrT14,premise,15026,"1728 U.S. 30, Clinton , PA 15026",1,OK
139,"78 Rice St, Bangor, ME 04401, USA",44.7924864,-68.83599099999999,ROOFTOP,ChIJkSuuuvBKrkwRGJ9X9_LhVag,premise,04401,"78 Rice Street, Bangor, ME 04401",1,OK
140,"10400 NE 4th St Unit 500, Bellevue, WA 98004, USA",47.6136707,-122.2013072,ROOFTOP,ChIJBUUDtIdskFQRr7AnRhsdBS0,subpremise,98004,"10400 NE 4th St, Suite 500, Bellevue, Washington 98004, US",1,OK
141,"Kamhouse, Ring Rd Parklands, Nairobi, Kenya",-1.2582583,36.8050906,ROOFTOP,ChIJmSy55hIXLxgRQHPfxvvXl7o,premise,,"4th Floor, KAM House, Westlands, Nairobi, Kenya, 00100",1,OK
142,"3205 Cherrywood Rd, Austin, TX 78722, USA",30.2871892,-97.71627570000001,ROOFTOP,ChIJx1sXvO21RIYRcD4xikD1aJU,premise,78722,"3205 Cherrywood Rd, Austin, Texas 78722, US",1,OK
143,"R. Monte Alegre, 1-900 - Perdizes, São Paulo - SP, 05014-000, Brazil",-23.5344936,-46.6676672,APPROXIMATE,ChIJ38faHh5YzpQRxSStMcP-uCA,postal_code,05014-000,"São Paulo, SP 05014-000, BR",1,OK
144,"185 Clara St, San Francisco, CA 94107, USA",37.7796974,-122.4017869,ROOFTOP,ChIJT8vX13-AhYARVJ9UEEJ_IZ8,street_address,94107,"185 Clara St, San Francisco, CA 94107, US",1,OK
145,"Blütenstraße 15, 80799 München, Germany",48.1514277,11.5751985,ROOFTOP,ChIJX9ep3Ot1nkcRR-t2dP75KLI,premise,80799,"Blütenstraße 15, 80799 München, Germany",1,OK
146,"Tiedthof, Goseriede 4, 30159 Hannover, Germany",52.3772891,9.732790099999999,ROOFTOP,ChIJySnczqR0sEcRrPJUPxTCpVw,premise,30159,"Tiedthof, Goseriede 4 30159 Hannover",1,OK
147,"4130 Cahuenga Blvd # 225, Toluca Lake, CA 91602, USA",34.1447295,-118.3610785,ROOFTOP,ChIJVVUVCzm-woARQqBGY5IKUEM,subpremise,91602,"4130 Cahuenga Blvd, Suite 225, Universal City, CA 91602, US",1,OK
148,"7047 E Greenway Pkwy, Scottsdale, AZ 85254, USA",33.62240450000001,-111.9286812,ROOFTOP,ChIJp6zGfhV0K4cR64O25d_vn9g,premise,85254,"7047 E. Greenway Parkway, Scottsdale, Arizona 85254, US",1,OK
149,"909 Lake Carolyn Pkwy # 260, Irving, TX 75039, USA",32.8690248,-96.9352555,ROOFTOP,ChIJEYvdbrmCToYR286q-InWj3o,subpremise,75039,"909 Lake Carolyn Pkwy, 260, Irving, Texas 75039, US",1,OK
150,"3175 Lenox Park Blvd #400, Memphis, TN 38115, USA",35.0622011,-89.84252810000001,ROOFTOP,EjEzMTc1IExlbm94IFBhcmsgQmx2ZCAjNDAwLCBNZW1waGlzLCBUTiAzODExNSwgVVNBIh8aHQoWChQKEgmdRKpAyJp_iBEuNTKsp2tiZxIDNDAw,subpremise,38115,"3175 Lenox Park Blvd, Suite 400, Memphis, Tennessee 38115, US",1,OK
151,"Cenada, Barreal, Heredia, 88-3006, 106, Heredia, Costa Rica",9.9799205,-84.1520875,GEOMETRIC_CENTER,ChIJhQGI1637oI8R47nkyrV9ZGU,"establishment,food,grocery_or_supermarket,point_of_interest,store",,"Europlaza Diursa , Frente a Cenada, Barreal , Heredia 2 piso, CR",1,OK
152,"Siriusdreef 45, 2132 WT Hoofddorp, Netherlands",52.29189539999999,4.7096246,ROOFTOP,ChIJFc7SfhLnxUcRGB0mp80erVs,street_address,2132 WT,"Siriusdreef 45, Hoofddorp, Netherlands 2132 WT, NL",1,OK
153,"Shen Nan Da Dao, 香蜜湖 Fu Tian Qu, Shen Zhen Shi, Guang Dong Sheng, China, 518042",22.538198,114.038308,GEOMETRIC_CENTER,ChIJPWtzPfvzAzQRQE20rQQP9Qw,"establishment,point_of_interest",518042,"No. 2003 Shennan Avenue, Huarong Tower, Futian District, Shenzhen 2003, CN",1,OK
154,"Bonifacio Global City, Taguig, Metro Manila, Philippines",14.5408671,121.0503183,APPROXIMATE,ChIJr5Qp-vPIlzMRCuRgR6-IyYk,"neighborhood,political",,"34th Street, Corner Lane A, Panorama Building Unit 1702, 17th Floor, Bonifacio Global City, Taguig Metro  Manila 1634, PH",2,OK
155,"Lahug, Cebu City, Cebu, Philippines",10.3338299,123.8941434,APPROXIMATE,ChIJA7wyKi-ZqTMRPmyxevF67Yw,"neighborhood,political",,"PIPC i2 Building, 8th Floor, AsiaTown IT Park, Lehug, Cebu City, Cebu 6000, PH",3,OK
156,"317 S Main St Suite 400, Ann Arbor, MI 48104, USA",42.2809486,-83.7463684,ROOFTOP,ChIJ6_Jpdj6uPIgRS2keOqaPdG0,subpremise,48104,"317 South Main Street, Suite 400, Ann Arbor, MI. 48104",1,OK
157,"Seoul, South Korea",37.566535,126.9779692,APPROXIMATE,ChIJzzlcLQGifDURm_JbQKHsEX4,"administrative_area_level_1,political",,"Seoul, Seoul, South Korea",1,OK
158,"N Dupont Hwy, Dover, DE 19901, USA",39.2000415,-75.5555708,GEOMETRIC_CENTER,EiJOIER1cG9udCBId3ksIERvdmVyLCBERSAxOTkwMSwgVVNBIi4qLAoUChIJWz7gouB6x4kRJqBM--pbFSQSFAoSCavF3-NbZMeJEf6EHkgzjGOc,route,19901,"N Dupont Hwy, Dover, DE 19901, United States",1,OK
159,"31011 Viking Pkwy, Westlake, OH 44145, USA",41.4729745,-81.96362429999999,ROOFTOP,ChIJWQIFI_uRMIgRJlxxtxVFz_A,premise,44145,"31011 Viking Pkwy, Westlake, Ohio 44145, US",1,OK
160,"2955 Campus Dr, San Mateo, CA 94403, USA",37.5366033,-122.3269607,ROOFTOP,ChIJawZpbUyej4AR1NZGpiLFMKQ,premise,94403,"2955 Campus Dr, San Mateo, California 94403, US",1,OK
161,"Mariendorfer Damm 1, 12099 Berlin, Germany",52.45314,13.38517,ROOFTOP,ChIJh4ef7QRFqEcRZjdr-gnPLQA,"establishment,point_of_interest",12099,"Mariendorfer Damm 1, The Drivery, Berlin, Berlin 12099, DE",1,OK
162,"18 Tremont St, Boston, MA 02108, USA",42.3587826,-71.05962459999999,ROOFTOP,ChIJ_Twr7IRw44kRP2k4XNDJHaM,street_address,02108,"18 Tremont Street, Boston, MA 02108",1,OK
163,"Westlakes Dr, Tredyffrin Township, PA 19312, USA",40.0618782,-75.4685761,GEOMETRIC_CENTER,ChIJf77wfxeTxokRLXLueuzhvhY,route,19312,"Westlakes Drive, Berwyn, PA 19382, US",1,OK
164,"1500 1st Ave N r103, Birmingham, AL 35203, USA",33.5119225,-86.81254100000001,ROOFTOP,Ei4xNTAwIDFzdCBBdmUgTiByMTAzLCBCaXJtaW5naGFtLCBBTCAzNTIwMywgVVNBIiAaHgoWChQKEglt8pd6jRuJiBGV7e4-2XGGbRIEcjEwMw,subpremise,35203,"1500 1st Ave N, R103, Birmingham, AL 35203, US",1,OK
165,"213 Cr Victor Hugo, 33130 Bègles, France",44.8061184,-0.5599449,ROOFTOP,ChIJ0youR_wmVQ0RL6yAQfQJkwY,"establishment,point_of_interest",33130,"Parc Newton, 213, cours Victor Hugo, Bègles, Nouvelle Aquitaine 33130, FR",1,OK
166,"3653 Blackhawk Dr, Rolling Meadows, IL 60008, USA",42.1009154,-88.025672,ROOFTOP,ChIJ3zg8p9ikD4gR9yG9ZCD89rA,street_address,60008,"3653 Blackhawk DrRolling Meadows, IL 60008, USA",1,OK
167,"1315 Macom Dr, Naperville, IL 60564, USA",41.72983989999999,-88.2073882,ROOFTOP,ChIJ208lhnX3DogR8GTgYrhc_7U,premise,60564,"1315 Macom Dr, Naperville, IL 60564, United States",1,OK
168,"1460 Broadway, New York, NY 10036, USA",40.7551279,-73.9861749,ROOFTOP,ChIJHYshKatZwokR7EBzDFM8gDQ,premise,10036,"1460 Broadway, New York, NY 10036, United States",1,OK
169,"Konstitucijos pr. 18, Vilnius 09309, Lithuania",54.69574,25.2754979,ROOFTOP,ChIJW529GASU3UYRKHegb05prHc,street_address,09309,"Konstitucijos prospektas 18, 09020 Šnipiški? seni?nija, Lithuania",1,OK
170,"701 Canyon Dr, Coppell, TX 75019, USA",32.9812114,-97.0151526,ROOFTOP,ChIJCYGVHAUsTIYRvBC0xFyR4u4,premise,75019,"701 Canyon Dr, Coppell, TX 75019, United States",1,OK
171,"1463 Oakfield Dr, Brandon, FL 33511, USA",27.932464,-82.3048688,ROOFTOP,ChIJqZ6N13nOwogRzyuHKOd4EVI,premise,33511,"1463 Oakfield Dr, Brandon, FL 33511, United States",1,OK
172,"Targowa 56, 03-733 Warszawa, Poland",52.252077,21.038517,ROOFTOP,ChIJCcs-q0fMHkcRy4oxny-BLk8,street_address,03-733,"Targowa 56, 03-733 Warsaw, Poland",1,OK
173,"Zuid Hollandlaan 7, 2596 AL Den Haag, Netherlands",52.0880911,4.3201461,ROOFTOP,ChIJxwBrSz63xUcRz3-KqfPF92U,premise,2596 AL,"Zuid-Hollandlaan 7, 2596 AL The Hague, Netherlands",1,OK
174,"600 California St, San Francisco, CA 94108, USA",37.7929158,-122.4046905,ROOFTOP,ChIJmy6rfoyAhYAR_0m0lNkaTY8,street_address,94108,"600 California St, San Francisco, CA 94108, United States",1,OK
175,,,,,,,,"#153, Sector 5, HSR Layout, Bengaluru, KA 560102",0,INVALID_REQUEST
176,,,,,,,,"33 UBI Avenue 3, #08-13, Vertex 408868",0,REQUEST_DENIED
177,,,,,,,,"539 W. Commerce St. #1255, Dallas, TX 75208",0,REQUEST_DENIED
178,"Hagenower Str. 73, 19061 Schwerin, Germany",53.6009914,11.4181828,ROOFTOP,ChIJy_NUmd7ZrUcRXKkDQS1vBAo,premise,19061,"Hagenower Straße 73, Schwerin, Mecklenburg-Vorpommern 19061, DE",1,OK
179,"9 Rue du Laboratoire, 1911 Luxembourg",49.6039645,6.1366934,ROOFTOP,ChIJV42oZs5IlUcRmPtQprcJZfY,street_address,1911,"9 Rue du Laboratoire, L-1911 Luxembourg, Luxembourg",1,OK
180,"Cesta v Gorice 34b, 1000 Ljubljana, Slovenia",46.0307254,14.4639834,ROOFTOP,ChIJ58SyLyQtZUcR9yC__2tosCc,street_address,1000,"Cesta v Gorice 34B, 1000 Ljubljana, Slovenia",1,OK
181,"Kyiv, Ukraine, 04050",50.46410849999999,30.4792904,APPROXIMATE,ChIJCTOmRHjO1EAROhB6k63NqTM,postal_code,04050,"Kyiv, 04050, Ukraine",1,OK
182,"5319 University Dr, Irvine, CA 92612, USA",33.65879710000001,-117.8035663,ROOFTOP,ChIJjbDJRpTd3IARg6Gly96pOgE,subpremise,92612,"5319 University Dr, PMB 7214, Irvine, California 92612, US",1,OK
183,"1160 E Mariposa Ave, El Segundo, CA 90245, USA",33.923387,-118.4045808,ROOFTOP,ChIJNVv_d0ixwoARNZ_onPTLxBM,premise,90245,"1160 E Mariposa Ave, El Segundo, California 90245, US",1,OK
184,"Kistagången 20b, 164 40 Kista, Sweden",59.40340029999999,17.9463656,ROOFTOP,ChIJoaqsS-2eX0YRaJ3n7t4VowY,street_address,164 40,"Kistagången 20b, Stockholm, 16440, SE",1,OK
185,"Heinz Moormannstraat 4, 5831 AW Boxmeer, Netherlands",51.642888,5.9287524,ROOFTOP,ChIJKcs4WrwTx0cRSOyte_EGuK4,premise,5831 AW,"HEINZ MOORMANNSTRAAT 4, 5831 AW Boxmeer, NETHERLANDS",1,OK
186,"17875 Von Karman Ave Unit 150a, Irvine, CA 92614, USA",33.6860546,-117.8473524,ROOFTOP,ChIJq6rqbJHe3IAR9KTbeUoXtEM,subpremise,92614,"17875 VON KARMAN AVE STE 150&250 • IRVINE, CA 92614, UNITED STATES OF AMERICA",1,OK
187,"2f, 515 Nonhyeon-ro, Gangnam-gu, Seoul, South Korea",37.502503,127.0356746,ROOFTOP,EjMyZiwgNTE1IE5vbmh5ZW9uLXJvLCBHYW5nbmFtLWd1LCBTZW91bCwgU291dGggS29yZWEiHhocChYKFAoSCW_xHZT-o3w1EXGw5LPspN3SEgIyZg,subpremise,135-080,"2F, 515, Nonhyeon-ro, Gangnam-gu, Seoul, Republic of Korea",1,OK
188,"135 Hai Bà Trưng, Bến Nghé, Quận 1, Thành phố Hồ Chí Minh, Vietnam",10.7823432,106.6985216,ROOFTOP,ChIJx2diFTYvdTERIomGgt5xL_s,street_address,,"No. 135 Hai Ba Trung, Ben Nghe Ward, District 1, City. Ho Chi Minh City",1,OK
189,"3003 N First St #221, San Jose, CA 95134, USA",37.392429,-121.933612,ROOFTOP,ChIJa3itc2XJj4ARbshBH2GfVRk,subpremise,95134,"Suite no. 221, 3003 North First Street, San Jose, CA 95134, United States",1,OK
190,"Chang Jiang Lu, Yan Tai Shi, Shan Dong Sheng, China",36.9861099,120.63195,GEOMETRIC_CENTER,EjNDaGFuZyBKaWFuZyBMdSwgWWFuIFRhaSBTaGksIFNoYW4gRG9uZyBTaGVuZywgQ2hpbmEiLiosChQKEglPj-3E4l6QNRElP5hGkv67bhIUChIJxZVL14RjkDUR1XRgDdZJxk4,route,,"Room 1820, 18th Floor, Yeda Zhigu Comprehensive Center, No. 300 Changjiang Road, Yantai Development Zone, China (Shandong) Pilot Free Trade Zone",1,OK
191,"Tower C, DLF Tower 8th Rd, DLF Cyber City, DLF Phase 2, Sector 24, Gurugram, Haryana 122002, India",28.4942883,77.0889127,ROOFTOP,ChIJ200QRTgZDTkRn6Km-QbBwZA,premise,122002,"Regd. Off.: 8th Floor, Building No.8, Tower C, DLF Cyber Hub, Gurgaon, Haryana",1,OK
192,"415 Madison Ave 4th floor, New York, NY 10016, USA",40.7567576,-73.9760823,ROOFTOP,ChIJ7X6cM_xYwokRWCpNkPmsBbw,subpremise,10016,"415 Madison Avenue, 4th Floor, New York, NY 10017, United States",1,OK
193,,,,,,,,"7250 Mile End Street #201, Montreal, QC, H2R 3A4",0,REQUEST_DENIED
194,"555 Briarwood Cir UNIT 118, Ann Arbor, MI 48108, USA",42.2416784,-83.7410858,ROOFTOP,ChIJSUBANZWvPIgRh9O58U_79gw,subpremise,48108,"555 Briarwood Circle, Suite 118, Ann Arbor, MI 48108",1,OK
195,"2000 Argentia Rd #107, Mississauga, ON L5N 1V8, Canada",43.5989363,-79.7407111,ROOFTOP,ChIJC1WZMoBqK4gRk_9OD0tR2PI,subpremise,L5N 1V8,"2000 Argentia Road, Plaza 2, Suite 107, Mississauga, ON, Canada, L5N 1V8",2,OK
196,"Seattle, WA 98111, USA",47.6099081,-122.3399526,APPROXIMATE,ChIJXcPGGLNqkFQRtYmgh7Y0N2U,postal_code,98111,"PO Box 162, Seattle, WA 98111, US",1,OK
197,"107 S B St #220, San Mateo, CA 94401, USA",37.5669986,-122.3237495,ROOFTOP,EikxMDcgUyBCIFN0ICMyMjAsIFNhbiBNYXRlbywgQ0EgOTQ0MDEsIFVTQSIfGh0KFgoUChIJX9EAz3Cej4ARJ3u8MO2ZdgcSAzIyMA,subpremise,94401,"107 South B Street, Suite 220, San Mateo, CA 94401, United States",1,OK
198,"1000 Corporate Center Dr # 140, Monterey Park, CA 91754, USA",34.0510747,-118.1620214,ROOFTOP,ChIJmR-mCoHFwoARkcumU0SBV2o,subpremise,91754,"1000 Corporate, Center Drive, Suite 140, Monterey park, CA 91754",1,OK
199,"231 W 4th St #203, Winston-Salem, NC 27101, USA",36.0984849,-80.2462436,ROOFTOP,Ei8yMzEgVyA0dGggU3QgIzIwMywgV2luc3Rvbi1TYWxlbSwgTkMgMjcxMDEsIFVTQSIfGh0KFgoUChIJodzhgkOuU4gRdwRFqS4nROYSAzIwMw,subpremise,27101,"231 W 4th St. Suite 203, Winston Salem, NC 27101",1,OK
200,"90 Peel St, New Hamburg, ON N3A 1H7, Canada",43.37795819999999,-80.7097035,ROOFTOP,ChIJ6do3OyYHLIgRoWMEkkhcnRs,premise,N3A 1H7,"90 Peel Street, New Hamburg, Ontario N3A 1E3",1,OK
201,"Park Centrale, Jose Maria del Mar St, Cebu City, 6000 Cebu, Philippines",10.3290473,123.9068258,ROOFTOP,ChIJkYx7FSKZqTMR-a-yrJubUgA,premise,6000,"X – Office, Suite X-06, 14th Floor Park Centrale Building, Cebu IT Park, Lahug, Cebu City 6000, Philippines",2,OK
202,"609 Castle Ridge Rd #320, Austin, TX 78746, USA",30.295116,-97.82961399999999,ROOFTOP,ChIJ9f_vPYA1W4YRD6raUZzCsnI,subpremise,78746,"609 Castle Ridge Rd, 320, Austin, Texas 78746, US",1,OK
203,"Techthree, 6001 Cass Ave, Detroit, MI 48202, USA",42.3643751,-83.0718773,ROOFTOP,ChIJqXRYGpnSJIgRLhu0-jiAt9Q,premise,48202,"6001 Cass Ave, Detroit, Michigan 48202, US",1,OK
204,"2315 W Chicago Ave, Chicago, IL 60622, USA",41.8955144,-87.68509039999999,ROOFTOP,ChIJ9aHW2EwtDogR39aNQmaMO0o,street_address,60622,"2315 W Chicago Ave, Chicago, Illinois 60622, US",1,OK
205,"820 Evergreen Rd, Pittsburgh, PA 15209, USA",40.4890137,-79.9720183,ROOFTOP,ChIJRSGFTgTzNIgRT17zgP_tyCM,street_address,15209,"820 Evergreen Avenue, Pittsburgh, PA 15219, US",1,OK
206,"1714 Heil Quaker Blvd #160, La Vergne, TN 37086, USA",36.0227724,-86.60375920000001,ROOFTOP,ChIJt7eoUJRyZIgRcdLtw8_EtNw,subpremise,37086,"1714 Heil Quaker Blvd., Suite 160, La Vergne, TN 37086",1,OK
207,"2 Redcliffe Way, Redcliffe, Bristol BS1 6NL, UK",51.4486901,-2.5871475,ROOFTOP,ChIJz0G9rz6PcUgRLN-8IuVuQKE,"establishment,point_of_interest",BS1 6NL,"Desklodge House 2 Redcliffe Way, Bristol BS1 6NL",1,OK
208,"25 Walbrook, London EC4N 8AF, UK",51.5123893,-0.0902511,ROOFTOP,ChIJo16FWFQDdkgRStKbLzHHUS8,street_address,EC4N 8AF,"25 Walbrook, Walbrook, City of London, London EC4N 8AF, England, United Kingdom",1,OK
209,"10545 Hardin Valley Rd, Knoxville, TN 37932, USA",35.9527644,-84.1514385,ROOFTOP,ChIJAfDoKtExXIgR4xxNflLaJ0Q,street_address,37932,"10545, Hardin Valley Road, Knoxville, TENNESSEE 37932, US",1,OK
210,"11555 N Meridian St #300, Carmel, IN 46032, USA",39.9542919,-86.1566893,ROOFTOP,ChIJDaP3b4usFIgRyTGl_-iaAXE,subpremise,46032,"11555 N. Meridian St., Suite 300, Carmel, IN 46032, US",1,OK
211,"18089 Edison Ave, Chesterfield, MO 63005, USA",38.6645792,-90.6375296,ROOFTOP,ChIJFRk5BifV3ocRN_jZUpnLr98,street_address,63005,"18089 Edison Ave, Chesterfield, MO 63005, United States",1,OK
212,"4905 Research Dr NW, Huntsville, AL 35805, USA",34.7298682,-86.6578813,ROOFTOP,ChIJAx_6Ev9rYogRW0_SlKiNQsY,premise,35805,"4905 Research Dr NW, Huntsville, AL 35805, United States",1,OK
213,"243 Dover Rd, Clarksville, TN 37042, USA",36.5510381,-87.3955409,ROOFTOP,ChIJE06XIpfXZIgRS-unqHACeAg,street_address,37042,"243 Dover Rd, Clarksville, TN 37042, United States",1,OK
214,"Moleneind-Oost, Takkebijsters 3A, 4817 BL Breda, Netherlands",51.5941553,4.824253,ROOFTOP,ChIJ3cgrpFqfxkcRJn9zH9qGrNw,premise,4817 BL,"Takkebijster 3A, 4817 BL Breda, Netherlands",1,OK
215,"Maria-Jacobi-Gasse 1/1, 1030 Wien, Austria",48.1893496,16.4047482,ROOFTOP,EipNYXJpYS1KYWNvYmktR2Fzc2UgMS8xLCAxMDMwIFdpZW4sIEF1c3RyaWEiHRobChYKFAoSCd8cgVxZB21HERLpKYaJu4DoEgEx,subpremise,1030,"Maria-Jacobi Gasse 1/1, 1030 Vienna, Austria",1,OK
216,"Bajkalská 12188/5, 831 04 Bratislava, Slovakia",48.1653384,17.1373964,ROOFTOP,ChIJ5Zc9SMiObEcRoWiIOLC4Plw,street_address,831 04,"Bajkalská 5, 83104 Bratislava, Slovakia",1,OK
217,"R. Domingos José Martins, 75 - 3º andar - Recife, PE, 50030-200, Brazil",-8.0617652,-34.8717011,ROOFTOP,ChIJVQtRb6MYqwcRCh9EkLT8yCQ,subpremise,50030-200,"Rua Domingos José Martins 75, 3º andar, Recife, Pernambuco 50030-200, BR",1,OK
218,"1651 Aviation Pl, Billings, MT 59105, USA",45.8027688,-108.5289366,ROOFTOP,ChIJ74hrxgx7SFMRZqt0eV9D4k8,premise,59105,"1651 Aviation Pl, Billings, Montana 59105-1993, US",1,OK
219,"20830 N Tatum Blvd #395, Phoenix, AZ 85050, USA",33.6743032,-111.9804746,ROOFTOP,Ei8yMDgzMCBOIFRhdHVtIEJsdmQgIzM5NSwgUGhvZW5peCwgQVogODUwNTAsIFVTQSIfGh0KFgoUChIJQ9qM3-FwK4cR_q3DJh0XwQwSAzM5NQ,subpremise,85050,"20830 N Tatum Blvd, 395, Phoenix, Arizona 85050, US",1,OK
220,"Garonor, 93150 Le Blanc-Mesnil, France",48.9542528,2.4560492,GEOMETRIC_CENTER,ChIJhXjzNTRr5kcRzf2PHA7WFAk,route,93150,"Garonor Ouest, Aulnay sous Bois, Ile de France 93600, FR",1,OK
221,"Parkla, Riia 142, 50415 Tartu, Estonia",58.3547293,26.6825114,ROOFTOP,ChIJcVNJRWw360YROywsg1TGjR4,premise,50415,"Riia 142, Tartu, Estonia",1,OK
222,"Austrumu iela 22, Vidzemes priekšpilsēta, Rīga, LV-1006, Latvia",56.9810344,24.1851329,RANGE_INTERPOLATED,EkJBdXN0cnVtdSBpZWxhIDIyLCBWaWR6ZW1lcyBwcmlla8WhcGlsc8STdGEsIFLEq2dhLCBMVi0xMDA2LCBMYXR2aWEiMBIuChQKEgnlnIGv9s7uRhELaDnJ8quGQRAWKhQKEgnlnIGv9s7uRhF3MsTvbvJT2w,street_address,1006,"Blauma?a iela 22, Riga, Latvia",1,OK
223,"St Petersburg, Russia, 199004",60.1497845,29.6450907,APPROXIMATE,ChIJkzfFCiMxlkYRTSRhwJCzSBE,postal_code,199004,"9 liniya V.O., 34, St. Petersburg, Petersburg 199004, RU",1,OK
224,"Karaportti 5, 02610 Espoo, Finland",60.22421439999999,24.7546314,ROOFTOP,ChIJ1XXDcqD2jUYRgLOsbADAAgM,premise,02610,"Karaportti 5, Espoo, Southern Finland 02610, FI",1,OK
225,"Santa Clara, CA, USA",37.3541079,-121.9552356,APPROXIMATE,ChIJk8EIXIG3j4ARwL_Ao3ykdeQ,"locality,political",,"Ste 104, Santa Clara",1,OK
226,"190 Middle Rd, Singapore 188979",1.3005022,103.8522215,ROOFTOP,ChIJjZfJEvQZ2jERk-cl2XeNhlE,"establishment,point_of_interest,shopping_mall",188979,"19, Middle Road, Fortune Centre, Singapore.",2,OK
227,"Oasis Square, 2, Jalan PJU 1A/7, Oasis Ara Damansara, 47301 Petaling Jaya, Selangor, Malaysia",3.1142958,101.5744791,ROOFTOP,ChIJAfRswoFOzDERdX5C4yoUD2E,premise,47301,"B7, 12/30, OASIS Sqaure, Ara Damansara, Malaysia.",2,OK
228,"Carrer del Marí Blas de Lezo, 46022 València, Valencia, Spain",39.4715409,-0.3342213,GEOMETRIC_CENTER,Ej9DYXJyZXIgZGVsIE1hcsOtIEJsYXMgZGUgTGV6bywgNDYwMjIgVmFsw6huY2lhLCBWYWxlbmNpYSwgU3BhaW4iLiosChQKEgkrQUvOY0hgDREagmseCdwNzxIUChIJm5NisIhIYA0RYH4TPnKvAhw,route,46022,"Calle de Marino Blas de Lezo, 46022 Valencia, Spain",1,OK
229,"C/ Gran Vía, 28, 28013 Madrid, Spain",40.4204381,-3.7017506,ROOFTOP,ChIJH2vGdYcoQg0RyJ-9S36blQU,premise,28013,"Calle Gran Vía 28, 28013 Madrid, Spain",1,OK
230,"Brampton, ON L7A 1M1, Canada",43.7338994,-79.83142509999999,APPROXIMATE,ChIJN-uCbksRK4gRm1COPYVULko,postal_code,L7A 1M1,"Toronto, Ontario L7A 1M1, CA",1,OK
231,"1000 Circle 75 Pkwy #300, Atlanta, GA 30339, USA",33.8890148,-84.4661994,ROOFTOP,EjAxMDAwIENpcmNsZSA3NSBQa3d5ICMzMDAsIEF0bGFudGEsIEdBIDMwMzM5LCBVU0EiHxodChYKFAoSCSO_WZFOEPWIEVIppeIx4DDyEgMzMDA,subpremise,30339,"1000 Circle 75 Parkway, Suite 300, Atlanta, GA 33401, United States",1,OK
232,"110 W 40th St #11th, New York, NY 10018, USA",40.7536526,-73.9860102,ROOFTOP,EiwxMTAgVyA0MHRoIFN0ICMxMXRoLCBOZXcgWW9yaywgTlkgMTAwMTgsIFVTQSIgGh4KFgoUChIJYaFY_apZwokRrJ_I3IyvlkgSBDExdGg,subpremise,10018,"110 W 40th Street, 11th Floor, New York, NY 10018",1,OK
233,"Charlottenstraße 2, 10969 Berlin, Germany",52.50523399999999,13.3931736,ROOFTOP,ChIJS5p1GdRRqEcR91ic5__lqa8,street_address,10969,"Charlottenstraße 2, 10969 Berlin, Germany",1,OK
234,"Dorohozhytska St, 3, 317, Kyiv, Ukraine, 02000",50.4688257,30.4621588,ROOFTOP,Ei5Eb3JvaG96aHl0c2thIFN0LCAzLCAzMTcsIEt5aXYsIFVrcmFpbmUsIDAyMDAwIh8aHQoWChQKEgkJX9Up0M3UQBEOx4b6mWgGfxIDMzE3,subpremise,02000,"3, Dorogozhitska st, room 317, Kiev, Kievska 04112, UA",1,OK
235,"2/22 Allen Street, Te Aro, Wellington 6011, New Zealand",-41.2931163,174.7821707,ROOFTOP,EjcyLzIyIEFsbGVuIFN0cmVldCwgVGUgQXJvLCBXZWxsaW5ndG9uIDYwMTEsIE5ldyBaZWFsYW5kIh0aGwoWChQKEglRZtx10K84bRFFMsK-RwS4oBIBMg,subpremise,6011,"2/22 Allen St, Te Aro, Wellington, 6011, NZ",1,OK
236,"Two Embarcadero Center, San Francisco, CA 94111, USA",37.79478810000001,-122.3984101,ROOFTOP,ChIJuU5vB2GAhYAR6zVEBjcyh0s,premise,94111,"Two Embarcadero, 8th Floor, San Francisco, CA 94111",1,OK
237,"43300 Southern Walk Plz, Ashburn, VA 20148, USA",39.0085383,-77.5034453,ROOFTOP,ChIJVe3lDxA_tokRw2MHtrQE6DM,premise,20148,"43300 Southern Walk Plaza, Broadlands, VA 20148, United States",1,OK
238,"Av. Parc Tecnològic, 3, 08290 Barcelona, Spain",41.4847715,2.1270519,ROOFTOP,ChIJcUZAYROWpBIRVNrEhT08Pac,"establishment,point_of_interest",08290,"Av. Parc Tecnològic del Vallès, 3, 08290, Cerdanyola Del Vallès",1,OK
239,"Wichita, KS 67202, USA",37.6843628,-97.332753,APPROXIMATE,ChIJ51CUn8LjuocRMAPq8s0v-1c,postal_code,67202,"Wichita, 67202, United States",1,OK
240,"Hollywood, MD 20636, USA",38.3583554,-76.5719414,APPROXIMATE,ChIJx8npv5Jkt4kRioNiYshrctY,postal_code,20636,"Hollywood, 20636, United States",1,OK
241,"1175 Church St, Bohemia, NY 11716, USA",40.7719271,-73.0971552,ROOFTOP,ChIJ_WIhBiU26IkRJ-YA2K2UKxU,premise,11716,"1175 Church St, Bohemia, NY 11716, United States",1,OK
242,"Shelton, CT 06484, USA",41.3164856,-73.0931641,APPROXIMATE,ChIJT3q-1TTg54kR1VNYDaydOcQ,"locality,political",06484,"Shelton, 06484, United States",1,OK
243,"7617 Mineral Point Rd, Madison, WI 53717, USA",43.060161,-89.51492239999999,ROOFTOP,ChIJUTXEBAGvB4gR1LdL1CwYCOc,premise,53717,"7617 Mineral Point Road, Madison, WI 53717, US",1,OK
244,"7519 Standish Pl, Derwood, MD 20855, USA",39.1092145,-77.1541785,ROOFTOP,ChIJ9TI3_oPSt4kRxnJd_SFSTyU,premise,20855,"7519 Standish Pl, Rockville, MD 20855, United States",1,OK
245,"Ha-Kharoshet St 16, Or Yehuda, Israel",32.0211339,34.8626674,ROOFTOP,ChIJXTQkV181HRURZ6xCyUdvv-4,street_address,,"Ha-Kharoshet 16, Or Yehuda, IL 6037584, IL",1,OK
246,"48 Yonge St #1200, Toronto, ON M5E 1G6, Canada",43.6479916,-79.377735,ROOFTOP,ChIJC0X8di3L1IkRh1-fgwruuRA,subpremise,M5E 1G6,"48 Yonge Street, Suite 1200, Toronto, Ontario M5E1G6, CA",1,OK
